{"type":"FeatureCollection","features":[{"type":"Feature","properties":{"uai_primary":"0170002K","uai_all":"0170002K","is_merged":false},"geometry":{"type":"Polygon","coordinates":[[[-0.29667,45.564388],[-0.29656,45.564531],[-0.295907,45.564518],[-0.293946,45.563711],[-0.294425,45.563279],[-0.292288,45.562036],[-0.291845,45.5621],[-0.291509,45.561566],[-0.29085,45.562131],[-0.290462,45.561797],[-0.289798,45.561766],[-0.28861,45.561205],[-0.288284,45.560549],[-0.287217,45.560063],[-0.285874,45.558684],[-0.283831,45.557573],[-0.283509,45.557447],[-0.282642,45.557497],[-0.281875,45.557929],[-0.281638,45.557541],[-0.281125,45.557222],[-0.279957,45.557085],[-0.279543,45.556629],[-0.277354,45.555459],[-0.276304,45.554522],[-0.276473,45.554081],[-0.275102,45.553384],[-0.274486,45.553228],[-0.273889,45.553373],[-0.273205,45.553854],[-0.271893,45.553701],[-0.270755,45.551884],[-0.270398,45.551653],[-0.270589,45.551353],[-0.270441,45.550754],[-0.270928,45.550202],[-0.272161,45.549587],[-0.271891,45.549293],[-0.271365,45.549504],[-0.270994,45.54944],[-0.270532,45.549674],[-0.268498,45.548372],[-0.267396,45.548159],[-0.26701,45.54794],[-0.266073,45.546696],[-0.266058,45.546208],[-0.264433,45.545326],[-0.264421,45.545063],[-0.264734,45.544707],[-0.264705,45.544056],[-0.261097,45.542379],[-0.26082,45.54198],[-0.26092,45.540845],[-0.260492,45.540476],[-0.259924,45.540404],[-0.259659,45.539801],[-0.257382,45.538548],[-0.255173,45.537894],[-0.254652,45.537429],[-0.253733,45.536996],[-0.253467,45.536489],[-0.252862,45.536383],[-0.252957,45.5358],[-0.250975,45.535499],[-0.250542,45.535272],[-0.25063,45.534935],[-0.24899,45.534765],[-0.248363,45.534435],[-0.249273,45.533971],[-0.250746,45.532883],[-0.251555,45.531922],[-0.25269,45.528777],[-0.254659,45.528727],[-0.254758,45.529186],[-0.255611,45.529832],[-0.25883,45.531493],[-0.261129,45.530179],[-0.262896,45.529425],[-0.264647,45.528012],[-0.265336,45.527201],[-0.265513,45.525906],[-0.265896,45.525019],[-0.268,45.525645],[-0.269198,45.525719],[-0.271272,45.524462],[-0.273649,45.524071],[-0.277528,45.522459],[-0.278887,45.521094],[-0.279507,45.5207],[-0.28153,45.520167],[-0.282692,45.519589],[-0.283879,45.519392],[-0.282398,45.520707],[-0.281493,45.521825],[-0.279369,45.525097],[-0.282368,45.525767],[-0.284329,45.526744],[-0.285652,45.528117],[-0.286378,45.527887],[-0.286865,45.528439],[-0.287418,45.528255],[-0.287737,45.528772],[-0.288912,45.528792],[-0.289305,45.530001],[-0.289776,45.530757],[-0.290501,45.53053],[-0.291221,45.53153],[-0.29332,45.5307],[-0.294318,45.529979],[-0.296625,45.527417],[-0.29914,45.528805],[-0.302017,45.528133],[-0.304339,45.528045],[-0.304561,45.528072],[-0.30698,45.529979],[-0.309507,45.531621],[-0.313563,45.533413],[-0.318378,45.53479],[-0.32164,45.53494],[-0.32048,45.537693],[-0.321688,45.538764],[-0.321619,45.539261],[-0.32211,45.541099],[-0.321016,45.542585],[-0.320394,45.542512],[-0.319449,45.544154],[-0.31854,45.543906],[-0.318001,45.544684],[-0.31066,45.543882],[-0.310484,45.545124],[-0.310589,45.546845],[-0.310085,45.548996],[-0.30876,45.548919],[-0.308725,45.549536],[-0.307016,45.549355],[-0.30614,45.550564],[-0.306588,45.550673],[-0.305786,45.551769],[-0.304745,45.55544],[-0.301815,45.55848],[-0.302225,45.55901],[-0.3015,45.559927],[-0.300909,45.560433],[-0.299663,45.56034],[-0.298484,45.561946],[-0.297903,45.561771],[-0.297745,45.5623],[-0.298378,45.562379],[-0.29667,45.564388]]]}}]}