{"type":"FeatureCollection","features":[{"type":"Feature","properties":{"uai_primary":"0520017L","uai_all":"0520017L","is_merged":false},"geometry":{"type":"Polygon","coordinates":[[[5.716964,47.765989],[5.719113,47.763833],[5.718135,47.763309],[5.715348,47.762424],[5.714099,47.761737],[5.712552,47.761556],[5.707894,47.761632],[5.707653,47.761725],[5.709043,47.763921],[5.707527,47.767553],[5.706587,47.768435],[5.7056,47.768983],[5.702218,47.769967],[5.696557,47.77051],[5.69385,47.770278],[5.690273,47.769156],[5.688925,47.768929],[5.684038,47.769182],[5.680006,47.770086],[5.681411,47.772797],[5.681517,47.775129],[5.683106,47.776115],[5.684258,47.776409],[5.686278,47.777337],[5.68846,47.777799],[5.690666,47.779461],[5.692921,47.780819],[5.694329,47.781223],[5.698715,47.781411],[5.700215,47.781775],[5.700927,47.780927],[5.700595,47.780495],[5.699794,47.780176],[5.70185,47.778937],[5.704631,47.779679],[5.70595,47.779707],[5.706262,47.77959],[5.706506,47.779327],[5.706442,47.778944],[5.705273,47.777425],[5.70559,47.77688],[5.707661,47.777516],[5.711755,47.774294],[5.713793,47.775275],[5.715469,47.776375],[5.719353,47.774408],[5.718219,47.773748],[5.716046,47.771912],[5.717525,47.770459],[5.715869,47.769607],[5.716022,47.768078],[5.71666,47.767872],[5.717189,47.767443],[5.717176,47.767068],[5.716546,47.766409],[5.716964,47.765989]]]}},{"type":"Feature","properties":{"uai_primary":"0520022S","uai_all":"0520022S","is_merged":false},"geometry":{"type":"Polygon","coordinates":[[[4.666331,48.58414],[4.666815,48.582596],[4.668178,48.583064],[4.66892,48.581316],[4.670135,48.580786],[4.670148,48.580377],[4.67034,48.58036],[4.670616,48.580629],[4.671255,48.580489],[4.671416,48.580774],[4.672425,48.5806],[4.671954,48.579969],[4.673066,48.578838],[4.67352,48.578801],[4.673525,48.579152],[4.675307,48.579053],[4.67688,48.579381],[4.676912,48.5801],[4.678435,48.58153],[4.679548,48.584093],[4.679978,48.584434],[4.681247,48.584182],[4.682022,48.581529],[4.685987,48.579896],[4.689808,48.577833],[4.689502,48.576739],[4.689802,48.575879],[4.690647,48.57558],[4.692516,48.57653],[4.693902,48.576642],[4.69473,48.576986],[4.695942,48.577996],[4.696627,48.578162],[4.697146,48.577657],[4.69743,48.576752],[4.698666,48.575801],[4.6987,48.575314],[4.69774,48.573641],[4.697733,48.572969],[4.698151,48.572352],[4.699757,48.571227],[4.700007,48.570801],[4.701487,48.57208],[4.702437,48.573935],[4.703157,48.574445],[4.706765,48.576062],[4.710072,48.577285],[4.717062,48.579287],[4.718664,48.579368],[4.717751,48.581597],[4.716488,48.58156],[4.716034,48.581398],[4.714987,48.583714],[4.712988,48.583267],[4.709944,48.583403],[4.710108,48.586697],[4.709652,48.589803],[4.71047,48.589882],[4.710544,48.59076],[4.7138,48.590669],[4.713753,48.590536],[4.716926,48.590247],[4.720585,48.591694],[4.719528,48.593793],[4.719819,48.593922],[4.717732,48.595717],[4.715908,48.595844],[4.715381,48.596214],[4.715002,48.596806],[4.715118,48.597883],[4.716136,48.597907],[4.718633,48.597633],[4.721565,48.599928],[4.721939,48.60062],[4.723802,48.600164],[4.726857,48.59886],[4.727033,48.598619],[4.729168,48.598221],[4.729745,48.59749],[4.732024,48.595456],[4.732253,48.594291],[4.732616,48.593584],[4.732148,48.589584],[4.732231,48.588921],[4.73352,48.588501],[4.73358,48.587982],[4.735177,48.587038],[4.735929,48.586339],[4.737347,48.58432],[4.737659,48.584139],[4.737216,48.583381],[4.735291,48.581364],[4.734444,48.579745],[4.73524,48.576169],[4.734889,48.575501],[4.740353,48.571943],[4.742898,48.572029],[4.747674,48.572732],[4.748381,48.572942],[4.748107,48.573258],[4.74914,48.5739],[4.751299,48.573369],[4.753849,48.573566],[4.755436,48.573285],[4.755739,48.573753],[4.755672,48.574304],[4.757038,48.575362],[4.758142,48.576839],[4.758706,48.578452],[4.759661,48.578744],[4.760435,48.579191],[4.760832,48.579219],[4.761036,48.579553],[4.764544,48.580517],[4.76622,48.579709],[4.766964,48.579132],[4.767533,48.578395],[4.767739,48.577592],[4.769131,48.577563],[4.769501,48.577419],[4.770448,48.576543],[4.77069,48.576583],[4.770747,48.574707],[4.771578,48.572355],[4.772375,48.571083],[4.774338,48.568775],[4.77618,48.565926],[4.777279,48.566054],[4.778439,48.565718],[4.77891,48.565739],[4.779504,48.565146],[4.779841,48.565132],[4.780033,48.565391],[4.780807,48.565475],[4.781471,48.566973],[4.781697,48.567175],[4.782677,48.567391],[4.782715,48.567822],[4.783154,48.567968],[4.783399,48.568338],[4.784103,48.568311],[4.785517,48.568767],[4.786347,48.568814],[4.787075,48.568674],[4.787355,48.569018],[4.787745,48.569135],[4.78762,48.569481],[4.78817,48.569538],[4.788428,48.570145],[4.7889,48.570091],[4.789205,48.569754],[4.789856,48.570003],[4.790353,48.569743],[4.790727,48.570104],[4.791874,48.56993],[4.792455,48.570006],[4.793048,48.569625],[4.793364,48.56995],[4.79389,48.570138],[4.794213,48.569594],[4.794868,48.569524],[4.795047,48.569333],[4.794933,48.568699],[4.795393,48.568664],[4.796312,48.568227],[4.796498,48.567948],[4.78292,48.554385],[4.783473,48.553474],[4.795084,48.539765],[4.795001,48.539404],[4.795633,48.537555],[4.795666,48.536537],[4.795246,48.53509],[4.796379,48.534516],[4.796448,48.53439],[4.795802,48.533954],[4.795711,48.5337],[4.795917,48.533303],[4.79663,48.532979],[4.796574,48.53267],[4.794887,48.531769],[4.79482,48.531569],[4.795554,48.531567],[4.797062,48.532053],[4.798781,48.53105],[4.799193,48.530143],[4.798766,48.529663],[4.795434,48.529695],[4.791151,48.528361],[4.788383,48.529118],[4.788363,48.529886],[4.787423,48.530511],[4.78057,48.532746],[4.779953,48.532709],[4.777968,48.531776],[4.776992,48.53244],[4.776388,48.532583],[4.774692,48.532518],[4.773787,48.532274],[4.773119,48.532263],[4.772703,48.532621],[4.772815,48.533197],[4.772429,48.533252],[4.771138,48.533897],[4.7698,48.534239],[4.766904,48.534569],[4.766159,48.534593],[4.765228,48.53322],[4.762332,48.533441],[4.761524,48.533639],[4.75941,48.535047],[4.758544,48.535379],[4.755606,48.535845],[4.753672,48.536708],[4.753234,48.53638],[4.752095,48.536396],[4.750672,48.536589],[4.748855,48.537146],[4.746093,48.537],[4.74753,48.538328],[4.747546,48.53861],[4.745061,48.537992],[4.74227,48.538526],[4.741402,48.538535],[4.7408,48.538342],[4.739757,48.538626],[4.739601,48.53842],[4.73864,48.538189],[4.737973,48.537667],[4.737089,48.538101],[4.736299,48.537922],[4.735937,48.538133],[4.735473,48.537893],[4.734823,48.538276],[4.733567,48.538482],[4.732919,48.53929],[4.732546,48.539436],[4.731775,48.539359],[4.73123,48.539529],[4.729746,48.539337],[4.729444,48.539141],[4.728369,48.539656],[4.726459,48.53969],[4.724999,48.540644],[4.724991,48.541277],[4.724814,48.541331],[4.723439,48.541579],[4.72291,48.540906],[4.722638,48.540866],[4.718016,48.541994],[4.7178,48.541728],[4.716782,48.541668],[4.716557,48.541177],[4.71554,48.541153],[4.714581,48.540903],[4.710508,48.539301],[4.706831,48.537254],[4.705409,48.537588],[4.703698,48.537172],[4.701997,48.536981],[4.698536,48.536826],[4.696898,48.536544],[4.69525,48.536037],[4.694978,48.536077],[4.694742,48.536839],[4.692581,48.536909],[4.689646,48.536697],[4.68678,48.536215],[4.685596,48.535474],[4.684565,48.535134],[4.68131,48.535028],[4.680506,48.535224],[4.678856,48.536156],[4.678745,48.536697],[4.676607,48.537343],[4.674927,48.537628],[4.673448,48.534888],[4.67394,48.534773],[4.673042,48.533842],[4.670839,48.532599],[4.670892,48.532373],[4.670068,48.531934],[4.669377,48.532689],[4.669821,48.534854],[4.66902,48.535774],[4.667697,48.536475],[4.666285,48.537748],[4.666307,48.537922],[4.660918,48.53787],[4.659585,48.53815],[4.658784,48.538861],[4.657941,48.53907],[4.656866,48.538277],[4.65254,48.537436],[4.651047,48.536919],[4.649681,48.541259],[4.649223,48.540475],[4.646536,48.540738],[4.646216,48.542585],[4.643605,48.541372],[4.64143,48.541199],[4.641078,48.540891],[4.640064,48.540911],[4.637736,48.541855],[4.636404,48.543905],[4.635007,48.544472],[4.636073,48.54562],[4.636849,48.547583],[4.634777,48.548172],[4.635497,48.549147],[4.635576,48.549956],[4.634533,48.551487],[4.639035,48.551781],[4.642343,48.552351],[4.641871,48.553467],[4.643008,48.553585],[4.643088,48.553717],[4.641341,48.553881],[4.640268,48.555074],[4.634901,48.555272],[4.629107,48.55706],[4.627444,48.557421],[4.624788,48.55748],[4.623646,48.557277],[4.622685,48.556644],[4.620219,48.556563],[4.614833,48.557313],[4.613609,48.557161],[4.613592,48.557506],[4.612283,48.557608],[4.612041,48.557367],[4.610999,48.557014],[4.609959,48.556957],[4.607926,48.556455],[4.602604,48.55625],[4.600523,48.557546],[4.600459,48.5578],[4.599635,48.558293],[4.598732,48.558465],[4.597688,48.559294],[4.596321,48.559495],[4.59557,48.559762],[4.592945,48.561148],[4.592044,48.560946],[4.591189,48.560513],[4.590294,48.560369],[4.589803,48.560629],[4.588681,48.561972],[4.58619,48.563021],[4.586168,48.562879],[4.583667,48.563291],[4.582037,48.563035],[4.580444,48.563437],[4.575808,48.563658],[4.572932,48.565284],[4.572268,48.565498],[4.571811,48.565425],[4.570391,48.565988],[4.566838,48.565128],[4.562716,48.564959],[4.563125,48.572026],[4.563309,48.572114],[4.562544,48.573296],[4.565054,48.573701],[4.571545,48.574057],[4.574251,48.573311],[4.575503,48.573722],[4.576988,48.57364],[4.57721,48.573899],[4.578417,48.574084],[4.579297,48.573895],[4.580377,48.573916],[4.581831,48.573706],[4.583981,48.573989],[4.584069,48.575055],[4.584516,48.575145],[4.584765,48.575752],[4.585883,48.575857],[4.587219,48.57619],[4.590233,48.577938],[4.591653,48.577432],[4.594316,48.57834],[4.593319,48.579944],[4.594059,48.581331],[4.596275,48.580875],[4.597249,48.58208],[4.598547,48.581686],[4.599404,48.583028],[4.600391,48.582658],[4.601156,48.584352],[4.603167,48.587264],[4.604091,48.587947],[4.605526,48.588522],[4.605313,48.58942],[4.605846,48.58969],[4.605527,48.590343],[4.606664,48.590481],[4.607759,48.589785],[4.610856,48.588842],[4.612944,48.588659],[4.613215,48.58855],[4.613466,48.588],[4.61666,48.588335],[4.620463,48.590025],[4.624583,48.591014],[4.633293,48.59149],[4.634019,48.591335],[4.635292,48.592061],[4.636067,48.59182],[4.636869,48.592252],[4.637608,48.59168],[4.642056,48.592267],[4.643268,48.5926],[4.643737,48.592981],[4.644489,48.592001],[4.645113,48.591541],[4.645559,48.590289],[4.64717,48.588716],[4.647052,48.586784],[4.650233,48.584689],[4.650547,48.584602],[4.65324,48.584919],[4.654869,48.584239],[4.658239,48.583813],[4.660033,48.582921],[4.661976,48.582568],[4.663659,48.581995],[4.664657,48.582277],[4.664752,48.583992],[4.666331,48.58414]]]}},{"type":"Feature","properties":{"uai_primary":"0520051Y","uai_all":"0520051Y","is_merged":false},"geometry":{"type":"Polygon","coordinates":[[[4.748111,48.620124],[4.748171,48.620221],[4.748501,48.620067],[4.748562,48.620485],[4.748875,48.620566],[4.749454,48.620025],[4.749903,48.620712],[4.750666,48.620425],[4.750916,48.620927],[4.751138,48.620963],[4.751361,48.62085],[4.75118,48.620356],[4.751711,48.619714],[4.752032,48.619843],[4.751985,48.62047],[4.752756,48.620026],[4.752962,48.620185],[4.752918,48.620424],[4.753187,48.620467],[4.754597,48.620222],[4.754942,48.620024],[4.754857,48.61989],[4.753958,48.619779],[4.754307,48.619172],[4.755167,48.61934],[4.755304,48.619662],[4.758842,48.622435],[4.76037,48.623982],[4.761394,48.623764],[4.764209,48.627097],[4.766018,48.626366],[4.766355,48.626359],[4.767172,48.627639],[4.768654,48.62722],[4.769891,48.626562],[4.770738,48.627413],[4.772674,48.628144],[4.773706,48.628903],[4.774348,48.627563],[4.777965,48.625592],[4.779092,48.624442],[4.780313,48.623919],[4.780198,48.623682],[4.784669,48.622138],[4.785529,48.621712],[4.787285,48.621376],[4.791867,48.621112],[4.794076,48.620665],[4.795505,48.621409],[4.797769,48.623395],[4.798437,48.624406],[4.798526,48.624581],[4.797398,48.624819],[4.798699,48.62723],[4.798712,48.6275],[4.798251,48.627788],[4.799954,48.629112],[4.797156,48.630464],[4.797706,48.632365],[4.798932,48.634285],[4.800219,48.635352],[4.801069,48.63637],[4.802056,48.636318],[4.802308,48.636967],[4.802249,48.637121],[4.797328,48.637602],[4.797665,48.639221],[4.798889,48.639286],[4.799353,48.642285],[4.798689,48.64268],[4.795655,48.641927],[4.795445,48.644324],[4.793948,48.645288],[4.792677,48.645675],[4.792289,48.646087],[4.792079,48.648564],[4.792827,48.649215],[4.791947,48.649971],[4.790444,48.650118],[4.788148,48.649649],[4.787622,48.649292],[4.787391,48.648717],[4.787573,48.647891],[4.786604,48.647479],[4.785926,48.648199],[4.78461,48.64909],[4.785074,48.649935],[4.784784,48.650317],[4.783076,48.651202],[4.782369,48.651179],[4.781136,48.650487],[4.780467,48.64887],[4.777592,48.649604],[4.775283,48.649911],[4.773229,48.650039],[4.772882,48.649438],[4.77253,48.649508],[4.772702,48.65044],[4.772606,48.652007],[4.777938,48.653229],[4.784033,48.654005],[4.786119,48.654009],[4.791675,48.653536],[4.797527,48.653386],[4.797682,48.653715],[4.802632,48.654181],[4.807625,48.654323],[4.810261,48.654227],[4.815656,48.653524],[4.821034,48.651689],[4.823833,48.650992],[4.828151,48.650839],[4.82871,48.651053],[4.831853,48.651118],[4.838139,48.650064],[4.842045,48.64965],[4.839035,48.645787],[4.840316,48.645323],[4.840539,48.64424],[4.842643,48.644245],[4.841953,48.64253],[4.843632,48.64218],[4.843471,48.641643],[4.844492,48.641712],[4.845018,48.64278],[4.846003,48.643479],[4.847914,48.642305],[4.850576,48.63985],[4.851713,48.637232],[4.853644,48.6348],[4.852409,48.633117],[4.850911,48.633293],[4.850121,48.632366],[4.850021,48.632212],[4.851806,48.631881],[4.851557,48.631202],[4.849715,48.629586],[4.848354,48.627951],[4.851239,48.627346],[4.848773,48.624464],[4.850431,48.62396],[4.848357,48.622467],[4.849847,48.622146],[4.852543,48.621009],[4.850934,48.61796],[4.851368,48.617267],[4.85113,48.615493],[4.853227,48.615778],[4.85351,48.614837],[4.856635,48.615467],[4.857543,48.615432],[4.857681,48.615406],[4.85737,48.614521],[4.857972,48.614328],[4.856823,48.612139],[4.855907,48.612546],[4.854577,48.61267],[4.851562,48.612055],[4.850504,48.614181],[4.847004,48.614548],[4.844387,48.614131],[4.842984,48.613279],[4.842133,48.612385],[4.84138,48.612439],[4.839571,48.611319],[4.839023,48.611195],[4.83699,48.611238],[4.835775,48.611659],[4.835665,48.611789],[4.836001,48.612193],[4.832869,48.613222],[4.831573,48.613188],[4.829742,48.612711],[4.829319,48.612489],[4.828849,48.611464],[4.827721,48.610543],[4.825767,48.608113],[4.82442,48.607213],[4.824126,48.607223],[4.822944,48.606292],[4.82275,48.606364],[4.821715,48.605702],[4.820282,48.606123],[4.819144,48.606944],[4.818251,48.607132],[4.81756,48.607089],[4.816297,48.606169],[4.814816,48.605793],[4.813375,48.604357],[4.812784,48.604312],[4.810739,48.60315],[4.809958,48.603124],[4.809203,48.602428],[4.809598,48.601901],[4.809113,48.601833],[4.808304,48.601193],[4.807541,48.600908],[4.807577,48.599346],[4.805701,48.598377],[4.804778,48.598926],[4.804201,48.597669],[4.804039,48.596616],[4.803014,48.596599],[4.803029,48.596913],[4.803395,48.597175],[4.803202,48.597404],[4.802727,48.597414],[4.802751,48.597908],[4.802296,48.598322],[4.798887,48.596848],[4.796876,48.595342],[4.791386,48.595712],[4.791118,48.597047],[4.790595,48.597727],[4.787858,48.598776],[4.787208,48.598802],[4.784172,48.599533],[4.783116,48.599068],[4.783071,48.598899],[4.784121,48.597617],[4.782097,48.596822],[4.779025,48.596354],[4.779605,48.594088],[4.779439,48.593729],[4.776871,48.593801],[4.77611,48.59346],[4.775685,48.592807],[4.77333,48.592993],[4.7706,48.593605],[4.769225,48.595007],[4.767672,48.596026],[4.766478,48.596062],[4.765275,48.595706],[4.764276,48.594818],[4.76365,48.594552],[4.764689,48.593232],[4.764641,48.592621],[4.765861,48.591915],[4.765895,48.591015],[4.767781,48.589684],[4.768673,48.58924],[4.769196,48.588691],[4.770147,48.586931],[4.769967,48.586097],[4.770409,48.585708],[4.770703,48.581911],[4.770523,48.580472],[4.771051,48.579099],[4.770618,48.577072],[4.77069,48.576583],[4.770448,48.576543],[4.769501,48.577419],[4.769131,48.577563],[4.767739,48.577592],[4.767533,48.578395],[4.766964,48.579132],[4.76622,48.579709],[4.764544,48.580517],[4.761036,48.579553],[4.760832,48.579219],[4.760435,48.579191],[4.759661,48.578744],[4.758706,48.578452],[4.758142,48.576839],[4.757038,48.575362],[4.755672,48.574304],[4.755739,48.573753],[4.755436,48.573285],[4.753849,48.573566],[4.751299,48.573369],[4.74914,48.5739],[4.748107,48.573258],[4.748381,48.572942],[4.747674,48.572732],[4.742898,48.572029],[4.740353,48.571943],[4.734889,48.575501],[4.73524,48.576169],[4.734444,48.579745],[4.735291,48.581364],[4.737216,48.583381],[4.737659,48.584139],[4.737347,48.58432],[4.735929,48.586339],[4.735177,48.587038],[4.73358,48.587982],[4.73352,48.588501],[4.732231,48.588921],[4.732148,48.589584],[4.732616,48.593584],[4.732253,48.594291],[4.732024,48.595456],[4.729745,48.59749],[4.729168,48.598221],[4.729102,48.599929],[4.729452,48.600223],[4.729443,48.60113],[4.729058,48.60228],[4.728852,48.604146],[4.729556,48.60509],[4.73028,48.605618],[4.733337,48.60722],[4.736318,48.607159],[4.736542,48.607605],[4.73702,48.607685],[4.739281,48.609879],[4.739495,48.610114],[4.739253,48.610271],[4.739709,48.610644],[4.740808,48.610918],[4.749102,48.610672],[4.748586,48.609667],[4.749118,48.608396],[4.750628,48.607607],[4.752307,48.609454],[4.754587,48.608628],[4.75516,48.609301],[4.757015,48.612918],[4.757926,48.612466],[4.758509,48.614676],[4.757719,48.61539],[4.75788,48.615936],[4.756344,48.615835],[4.75558,48.616561],[4.754867,48.616814],[4.75354,48.617741],[4.752874,48.61765],[4.749602,48.618272],[4.749635,48.618538],[4.749054,48.618722],[4.74952,48.61925],[4.748853,48.619339],[4.748092,48.619181],[4.747548,48.619517],[4.747525,48.619792],[4.748111,48.620124]]]}}]}