{"type":"FeatureCollection","features":[{"type":"Feature","properties":{"uai_primary":"0900006T","uai_all":"0900006T","is_merged":false},"geometry":{"type":"Polygon","coordinates":[[[6.791627,47.596182],[6.791303,47.596286],[6.791294,47.596961],[6.791541,47.597538],[6.793085,47.598469],[6.793303,47.598686],[6.793286,47.599273],[6.790828,47.60252],[6.790093,47.604079],[6.790076,47.604666],[6.788345,47.604687],[6.788228,47.604872],[6.78841,47.60545],[6.788348,47.606308],[6.787438,47.607379],[6.787174,47.6082],[6.787063,47.610052],[6.785896,47.611222],[6.784628,47.611991],[6.782947,47.612597],[6.781051,47.613029],[6.779959,47.613522],[6.778398,47.614752],[6.778479,47.615512],[6.777691,47.615739],[6.777917,47.616859],[6.779138,47.620043],[6.779101,47.620276],[6.778476,47.620821],[6.778426,47.621727],[6.778715,47.622258],[6.780374,47.623805],[6.780631,47.624744],[6.780519,47.62528],[6.783791,47.625852],[6.789436,47.625636],[6.789306,47.627262],[6.790099,47.627186],[6.790928,47.627386],[6.791194,47.626739],[6.79198,47.626574],[6.792359,47.626334],[6.792524,47.625923],[6.792407,47.624962],[6.794095,47.62546],[6.795471,47.62532],[6.797862,47.625341],[6.799178,47.623614],[6.800946,47.624159],[6.802799,47.624188],[6.804819,47.623773],[6.804973,47.623417],[6.806077,47.622638],[6.806918,47.622732],[6.808168,47.623566],[6.811855,47.625225],[6.817248,47.624386],[6.821971,47.624294],[6.826071,47.626298],[6.830588,47.630853],[6.834927,47.635878],[6.836079,47.633573],[6.835584,47.633014],[6.836029,47.632283],[6.836257,47.631289],[6.837117,47.631535],[6.83748,47.63111],[6.837821,47.631324],[6.838494,47.63002],[6.840251,47.627913],[6.841375,47.628214],[6.841812,47.627766],[6.842963,47.627525],[6.843529,47.628352],[6.843448,47.628486],[6.842494,47.628881],[6.842094,47.62949],[6.842204,47.629895],[6.841855,47.630415],[6.840943,47.63078],[6.84047,47.631513],[6.839727,47.631713],[6.839917,47.631982],[6.839788,47.632426],[6.839117,47.633216],[6.838596,47.633426],[6.838425,47.634293],[6.837941,47.634797],[6.838146,47.635562],[6.83778,47.636414],[6.837992,47.636652],[6.83856,47.636336],[6.839551,47.636786],[6.840536,47.636652],[6.841766,47.636792],[6.842053,47.637002],[6.842332,47.636897],[6.842785,47.636937],[6.842908,47.637075],[6.844108,47.637004],[6.844992,47.637342],[6.845748,47.637177],[6.846975,47.637315],[6.847745,47.637072],[6.848672,47.637681],[6.850253,47.637831],[6.850716,47.638042],[6.851388,47.637473],[6.851675,47.636655],[6.852137,47.636283],[6.852337,47.635801],[6.852699,47.635973],[6.852685,47.636204],[6.853256,47.636075],[6.853635,47.636327],[6.854484,47.636012],[6.85447,47.635811],[6.854263,47.635858],[6.853438,47.63536],[6.853509,47.635156],[6.852907,47.634938],[6.853086,47.634616],[6.854946,47.635224],[6.854819,47.635869],[6.855553,47.636129],[6.856213,47.636133],[6.856999,47.63644],[6.857564,47.637354],[6.857899,47.637007],[6.857775,47.636623],[6.858336,47.636549],[6.858712,47.636049],[6.859562,47.636305],[6.86064,47.635747],[6.860299,47.634797],[6.861656,47.63254],[6.861699,47.631747],[6.862081,47.631272],[6.862163,47.630819],[6.861761,47.629945],[6.860335,47.629654],[6.859924,47.629379],[6.859931,47.629121],[6.860445,47.628714],[6.861575,47.628688],[6.863371,47.626385],[6.862788,47.624679],[6.861052,47.624257],[6.860588,47.62514],[6.858953,47.626633],[6.857821,47.626157],[6.855259,47.626341],[6.854317,47.624885],[6.853626,47.622386],[6.852505,47.620339],[6.849683,47.62042],[6.848975,47.620321],[6.848837,47.620777],[6.849067,47.620916],[6.847893,47.621201],[6.847205,47.62197],[6.847332,47.619421],[6.846714,47.616352],[6.843086,47.6129],[6.839884,47.61117],[6.839833,47.609058],[6.839214,47.608376],[6.839304,47.607353],[6.838989,47.60695],[6.838752,47.607405],[6.838706,47.606934],[6.839042,47.605685],[6.839295,47.60541],[6.839235,47.605055],[6.840104,47.604636],[6.840067,47.604321],[6.840609,47.604157],[6.840182,47.60381],[6.83944,47.603702],[6.839706,47.603383],[6.839664,47.603099],[6.840208,47.602878],[6.839262,47.6028],[6.83898,47.60085],[6.837324,47.600123],[6.835898,47.599161],[6.834114,47.598553],[6.832681,47.597164],[6.832248,47.596984],[6.831727,47.596343],[6.829349,47.594864],[6.828025,47.593694],[6.828371,47.59283],[6.827839,47.59285],[6.826584,47.592179],[6.826964,47.591698],[6.827329,47.588908],[6.82495,47.58616],[6.823661,47.583584],[6.822782,47.579488],[6.821974,47.577807],[6.820325,47.575456],[6.818819,47.576713],[6.817982,47.577835],[6.814415,47.579271],[6.810399,47.581218],[6.809321,47.580908],[6.806164,47.582156],[6.805519,47.5821],[6.801922,47.584292],[6.803178,47.585451],[6.801505,47.58693],[6.802402,47.587625],[6.803395,47.588028],[6.803589,47.588435],[6.802397,47.589778],[6.802618,47.590662],[6.802326,47.590834],[6.802198,47.590749],[6.801083,47.591891],[6.800781,47.591948],[6.798706,47.590866],[6.797994,47.591634],[6.791627,47.596182]]]}},{"type":"Feature","properties":{"uai_primary":"0900007U","uai_all":"0900007U","is_merged":false},"geometry":{"type":"Polygon","coordinates":[[[6.969856,47.511081],[6.96876,47.511267],[6.967614,47.511854],[6.965934,47.513182],[6.960439,47.514978],[6.958029,47.51557],[6.959237,47.516468],[6.958816,47.516955],[6.960364,47.517894],[6.960889,47.518432],[6.965335,47.517756],[6.965662,47.518464],[6.966599,47.518516],[6.968404,47.519582],[6.969718,47.519954],[6.969413,47.520403],[6.970523,47.520775],[6.970589,47.520465],[6.972216,47.521168],[6.972755,47.522029],[6.973661,47.521885],[6.974221,47.522079],[6.97449,47.521331],[6.977074,47.522336],[6.977346,47.521921],[6.981499,47.523865],[6.982138,47.523245],[6.98405,47.524304],[6.985645,47.526177],[6.985103,47.526515],[6.985998,47.527478],[6.985753,47.527569],[6.986875,47.529199],[6.986776,47.529276],[6.987691,47.530152],[6.987536,47.530624],[6.987181,47.530906],[6.987665,47.53114],[6.987468,47.531538],[6.988443,47.532336],[6.988102,47.532548],[6.988986,47.533261],[6.987983,47.53357],[6.98904,47.534114],[6.989922,47.535041],[6.990231,47.53492],[6.991036,47.535287],[6.993112,47.535356],[6.99412,47.535633],[6.994813,47.535958],[6.996148,47.537018],[6.996427,47.536826],[6.996563,47.536918],[6.99677,47.537362],[6.99771,47.538044],[6.997441,47.53829],[6.997568,47.538483],[6.999639,47.538714],[7.000377,47.539277],[7.003067,47.540704],[7.005717,47.541563],[7.007031,47.541057],[7.007586,47.54246],[7.008847,47.543755],[7.012993,47.544427],[7.013511,47.544268],[7.013806,47.543945],[7.014152,47.54391],[7.018631,47.545129],[7.019344,47.545078],[7.020996,47.544479],[7.022303,47.544301],[7.02573,47.545013],[7.026237,47.544857],[7.02681,47.544075],[7.027949,47.541802],[7.032524,47.543305],[7.035089,47.543446],[7.037518,47.543864],[7.038909,47.544262],[7.039345,47.54465],[7.039569,47.545216],[7.039589,47.546257],[7.03815,47.547983],[7.036686,47.548833],[7.036562,47.54923],[7.034466,47.550092],[7.033805,47.550127],[7.033449,47.550475],[7.032933,47.551839],[7.033368,47.55275],[7.033057,47.553903],[7.033246,47.556178],[7.033005,47.556678],[7.032527,47.556716],[7.031977,47.557321],[7.031634,47.557223],[7.031209,47.557393],[7.030974,47.557303],[7.030848,47.557524],[7.030496,47.557466],[7.030132,47.557593],[7.027953,47.558982],[7.027452,47.560021],[7.028252,47.561125],[7.028108,47.56187],[7.025751,47.562856],[7.021582,47.562684],[7.021552,47.56292],[7.021648,47.563979],[7.02194,47.563931],[7.022219,47.564422],[7.023831,47.565807],[7.026067,47.569682],[7.030724,47.575441],[7.034435,47.579696],[7.037054,47.582017],[7.040483,47.582532],[7.04112,47.581301],[7.041485,47.581256],[7.041591,47.580913],[7.047203,47.58237],[7.046774,47.581615],[7.046248,47.579508],[7.0488,47.577609],[7.050512,47.576632],[7.05181,47.577799],[7.053769,47.577095],[7.054225,47.576799],[7.054476,47.576276],[7.055524,47.576783],[7.055378,47.575814],[7.0539,47.574464],[7.053831,47.574025],[7.054914,47.573521],[7.055716,47.572685],[7.056796,47.571976],[7.054916,47.571464],[7.055599,47.57042],[7.055991,47.570171],[7.056828,47.570004],[7.057841,47.569279],[7.060203,47.570268],[7.063142,47.571],[7.064007,47.571044],[7.067477,47.571938],[7.070178,47.574074],[7.071854,47.573092],[7.073879,47.575267],[7.074203,47.575041],[7.075372,47.575807],[7.077151,47.575922],[7.078414,47.577251],[7.078096,47.577441],[7.078767,47.578401],[7.079649,47.57748],[7.082521,47.578583],[7.08261,47.578767],[7.082407,47.578935],[7.085769,47.582834],[7.085483,47.58367],[7.086461,47.585549],[7.086664,47.585557],[7.086575,47.585378],[7.086933,47.58517],[7.086806,47.5848],[7.087117,47.584347],[7.087677,47.584593],[7.087825,47.584449],[7.087649,47.58423],[7.088653,47.583942],[7.089852,47.583004],[7.089864,47.582274],[7.090244,47.581848],[7.09022,47.581597],[7.089989,47.581551],[7.090277,47.581306],[7.089859,47.581229],[7.09012,47.580974],[7.08999,47.580855],[7.090535,47.579551],[7.090453,47.579354],[7.091927,47.57876],[7.093019,47.577361],[7.09278,47.576991],[7.093787,47.575599],[7.094137,47.573497],[7.095107,47.573185],[7.096591,47.573516],[7.097426,47.573477],[7.099505,47.572836],[7.100148,47.572078],[7.101557,47.571215],[7.102296,47.57056],[7.10342,47.570008],[7.104807,47.569741],[7.105442,47.569119],[7.105064,47.568208],[7.105039,47.567505],[7.105709,47.567694],[7.106122,47.566143],[7.107659,47.56487],[7.108268,47.563881],[7.108414,47.561866],[7.107266,47.556102],[7.108111,47.55451],[7.108244,47.552142],[7.10571,47.551605],[7.106232,47.551427],[7.107014,47.550673],[7.107775,47.550703],[7.108156,47.550492],[7.108099,47.550269],[7.10852,47.550052],[7.109124,47.55024],[7.109175,47.550051],[7.109658,47.549943],[7.109611,47.549749],[7.109931,47.549584],[7.109897,47.549323],[7.110149,47.549074],[7.110919,47.548786],[7.111149,47.548807],[7.111171,47.549016],[7.111435,47.548987],[7.111615,47.548698],[7.114784,47.54804],[7.11556,47.548154],[7.116197,47.548015],[7.116979,47.547577],[7.118107,47.54749],[7.118833,47.547642],[7.119614,47.546868],[7.120084,47.547327],[7.120341,47.547265],[7.12062,47.547102],[7.120234,47.546647],[7.120663,47.546348],[7.120786,47.545808],[7.121426,47.545733],[7.122142,47.545091],[7.122413,47.544567],[7.122294,47.544288],[7.122938,47.54373],[7.124188,47.543505],[7.124531,47.54328],[7.125923,47.543271],[7.127431,47.542801],[7.130206,47.541319],[7.130765,47.541228],[7.130768,47.540765],[7.131323,47.540608],[7.131569,47.540275],[7.132416,47.540267],[7.132511,47.540121],[7.132324,47.540002],[7.1327,47.539763],[7.133132,47.53991],[7.132987,47.539523],[7.133372,47.539428],[7.133621,47.538969],[7.134113,47.538809],[7.134027,47.538597],[7.133629,47.538521],[7.133629,47.538207],[7.13392,47.538241],[7.134191,47.538074],[7.134565,47.538138],[7.134487,47.538017],[7.134761,47.537954],[7.134677,47.537747],[7.135187,47.537592],[7.135333,47.537367],[7.135691,47.537369],[7.136114,47.53716],[7.135786,47.536948],[7.135627,47.536356],[7.135742,47.535964],[7.136188,47.535981],[7.135818,47.535653],[7.135839,47.535272],[7.136,47.535078],[7.136203,47.535189],[7.136575,47.535015],[7.136264,47.534848],[7.13648,47.534508],[7.137156,47.534423],[7.136942,47.534235],[7.137311,47.533982],[7.137087,47.53389],[7.137188,47.533555],[7.136945,47.533672],[7.136857,47.533462],[7.136462,47.533541],[7.136001,47.53329],[7.136234,47.533081],[7.136174,47.532725],[7.136496,47.532399],[7.136349,47.5323],[7.136555,47.532234],[7.136411,47.532094],[7.136696,47.531866],[7.136628,47.531694],[7.137215,47.53113],[7.138438,47.530543],[7.138471,47.529641],[7.138074,47.529262],[7.138194,47.528977],[7.138356,47.529007],[7.13835,47.527718],[7.139922,47.526099],[7.143363,47.524591],[7.142184,47.523314],[7.139439,47.519345],[7.137822,47.510551],[7.137377,47.509349],[7.135886,47.506923],[7.13424,47.504956],[7.131568,47.503437],[7.130257,47.502947],[7.128003,47.503879],[7.126555,47.502582],[7.11569,47.496296],[7.112525,47.495109],[7.10504,47.494723],[7.102594,47.494382],[7.100036,47.49432],[7.096907,47.495174],[7.094229,47.495441],[7.09142,47.494715],[7.081352,47.489717],[7.07816,47.488711],[7.074851,47.488189],[7.07255,47.489743],[7.072068,47.492377],[7.062845,47.494583],[7.060765,47.495387],[7.058161,47.495411],[7.055724,47.495006],[7.052429,47.495113],[7.049335,47.496071],[7.044534,47.498447],[7.043177,47.498154],[7.036941,47.497515],[7.03665,47.499204],[7.034204,47.499188],[7.030836,47.500421],[7.029092,47.50154],[7.028237,47.501622],[7.027647,47.501319],[7.026411,47.502397],[7.024934,47.504293],[7.02151,47.504468],[7.019745,47.504332],[7.017673,47.503693],[7.01673,47.503695],[7.014745,47.503304],[7.003737,47.500746],[7.000381,47.499724],[7.000341,47.499074],[6.999411,47.498617],[6.995872,47.497304],[6.990834,47.495838],[6.988281,47.494849],[6.986026,47.493339],[6.982968,47.494552],[6.98264,47.493656],[6.984932,47.492854],[6.986427,47.492141],[6.985754,47.491652],[6.986933,47.490239],[6.987782,47.488297],[6.988649,47.486898],[6.988591,47.481017],[6.986515,47.476833],[6.98644,47.476331],[6.987846,47.474928],[6.988437,47.473833],[6.988296,47.473102],[6.981422,47.473143],[6.972214,47.477417],[6.970093,47.478849],[6.96994,47.47935],[6.962654,47.481478],[6.960235,47.481796],[6.957313,47.482404],[6.954877,47.484028],[6.952405,47.485081],[6.95355,47.489955],[6.95377,47.490158],[6.955672,47.490596],[6.956694,47.493937],[6.960409,47.493589],[6.960434,47.496289],[6.963655,47.495905],[6.96609,47.503112],[6.966197,47.505998],[6.969918,47.506659],[6.969856,47.511081]]]}},{"type":"Feature","properties":{"uai_primary":"0900009W","uai_all":"0900009W","is_merged":false},"geometry":{"type":"Polygon","coordinates":[[[6.797372,47.690733],[6.795316,47.690091],[6.787729,47.690292],[6.780174,47.689769],[6.779788,47.69028],[6.77922,47.69305],[6.778811,47.693741],[6.779412,47.69534],[6.77887,47.696036],[6.778148,47.697775],[6.777783,47.698194],[6.773934,47.699242],[6.77183,47.700403],[6.770951,47.701067],[6.770531,47.701623],[6.769877,47.704982],[6.769937,47.7057],[6.770412,47.706583],[6.77004,47.707723],[6.772061,47.709538],[6.772446,47.710153],[6.772251,47.711017],[6.77257,47.711635],[6.771326,47.712719],[6.770547,47.713784],[6.768947,47.71461],[6.76864,47.716514],[6.768249,47.71743],[6.767628,47.717994],[6.766858,47.719149],[6.765534,47.71929],[6.764845,47.719811],[6.763203,47.720144],[6.762432,47.720489],[6.760991,47.721625],[6.75945,47.722359],[6.758331,47.723347],[6.75662,47.724448],[6.756673,47.725077],[6.756245,47.725543],[6.756623,47.72607],[6.757654,47.726436],[6.758473,47.72744],[6.760552,47.729163],[6.761031,47.730091],[6.76043,47.732501],[6.760491,47.736417],[6.760143,47.73706],[6.760355,47.737998],[6.759583,47.739154],[6.757822,47.74772],[6.759864,47.748917],[6.760846,47.750275],[6.760932,47.751308],[6.761155,47.75157],[6.763035,47.752489],[6.764316,47.753432],[6.764475,47.75374],[6.764407,47.758517],[6.765747,47.759367],[6.767329,47.760704],[6.769404,47.763147],[6.772352,47.765647],[6.774581,47.766733],[6.774794,47.768481],[6.775943,47.769429],[6.778446,47.770594],[6.779528,47.774742],[6.780496,47.776228],[6.783546,47.778822],[6.784701,47.781435],[6.785624,47.782076],[6.79256,47.785099],[6.796096,47.785009],[6.796874,47.78633],[6.798016,47.787186],[6.801584,47.789077],[6.803723,47.790661],[6.806131,47.79147],[6.807963,47.793382],[6.808793,47.79371],[6.811315,47.794289],[6.811564,47.794865],[6.81111,47.796246],[6.811699,47.797724],[6.813536,47.798104],[6.814467,47.798528],[6.815931,47.800975],[6.820652,47.805865],[6.820472,47.806909],[6.820617,47.807038],[6.824936,47.809079],[6.823907,47.811145],[6.823559,47.812555],[6.823837,47.814256],[6.827153,47.815525],[6.827459,47.815963],[6.832343,47.817576],[6.834059,47.818694],[6.834423,47.819799],[6.835424,47.821409],[6.83788,47.823015],[6.838525,47.823607],[6.838884,47.824398],[6.839803,47.824782],[6.842345,47.825091],[6.844789,47.823992],[6.845879,47.822894],[6.843439,47.820766],[6.841014,47.818983],[6.842167,47.816953],[6.842364,47.815226],[6.84297,47.812822],[6.842684,47.812183],[6.84399,47.811836],[6.845502,47.810893],[6.846328,47.810595],[6.847463,47.810765],[6.848131,47.809004],[6.849621,47.807862],[6.850558,47.80681],[6.848199,47.804269],[6.849016,47.801448],[6.851596,47.797995],[6.854507,47.795887],[6.85689,47.795107],[6.860047,47.794347],[6.862076,47.792054],[6.862182,47.791064],[6.860684,47.789616],[6.862157,47.788007],[6.862162,47.786328],[6.862493,47.785656],[6.865381,47.784889],[6.866016,47.783853],[6.867757,47.783072],[6.86962,47.782341],[6.872001,47.781775],[6.87423,47.781938],[6.877633,47.782444],[6.880586,47.782084],[6.881807,47.782097],[6.885591,47.78107],[6.888542,47.779794],[6.891882,47.778756],[6.892451,47.777911],[6.893001,47.77757],[6.894253,47.777541],[6.897083,47.77703],[6.899412,47.777104],[6.902299,47.776633],[6.903638,47.7711],[6.90495,47.769671],[6.905426,47.766787],[6.901325,47.765741],[6.898733,47.765717],[6.897915,47.765306],[6.897704,47.764494],[6.895437,47.76228],[6.895252,47.761635],[6.894366,47.760919],[6.893395,47.759177],[6.893462,47.758382],[6.893274,47.758051],[6.890858,47.756147],[6.890435,47.755363],[6.888058,47.75354],[6.888872,47.752348],[6.889008,47.751814],[6.8888,47.751133],[6.888283,47.75078],[6.889069,47.750243],[6.891403,47.745832],[6.897177,47.738124],[6.903784,47.732383],[6.906843,47.723507],[6.908392,47.722215],[6.908802,47.720411],[6.908436,47.718002],[6.906026,47.715426],[6.90336,47.714696],[6.901166,47.713612],[6.89839,47.713237],[6.895382,47.713229],[6.895185,47.711999],[6.894841,47.711896],[6.89401,47.709807],[6.892713,47.708597],[6.892507,47.707555],[6.892097,47.706914],[6.8923,47.705675],[6.892118,47.705556],[6.892605,47.704266],[6.892473,47.703294],[6.891116,47.702233],[6.890704,47.700424],[6.891003,47.698867],[6.891243,47.698588],[6.892106,47.698364],[6.891042,47.697511],[6.89055,47.696406],[6.890828,47.695939],[6.890536,47.695382],[6.890468,47.694484],[6.889202,47.694803],[6.888499,47.694534],[6.887329,47.69647],[6.886849,47.696459],[6.88251,47.698059],[6.880642,47.69851],[6.861714,47.700053],[6.860173,47.698988],[6.853387,47.697769],[6.852558,47.697437],[6.848016,47.697542],[6.842964,47.697934],[6.840769,47.698548],[6.83989,47.698063],[6.837591,47.698146],[6.837599,47.698299],[6.836359,47.69815],[6.835399,47.697827],[6.832778,47.697612],[6.832019,47.697326],[6.831621,47.697342],[6.831584,47.69847],[6.829088,47.698161],[6.825375,47.696863],[6.824732,47.696347],[6.819711,47.695369],[6.818136,47.69489],[6.816331,47.694059],[6.81611,47.693403],[6.815544,47.692714],[6.812524,47.69169],[6.811437,47.692929],[6.810196,47.693843],[6.809773,47.693816],[6.809858,47.693193],[6.809507,47.692685],[6.808945,47.692888],[6.808586,47.693604],[6.807758,47.693407],[6.804995,47.691855],[6.801332,47.691903],[6.797372,47.690733]]]}},{"type":"Feature","properties":{"uai_primary":"0900011Y","uai_all":"0900011Y","is_merged":false},"geometry":{"type":"Polygon","coordinates":[[[6.962226,47.628498],[6.96218,47.629349],[6.963091,47.630202],[6.962794,47.630294],[6.96203,47.631522],[6.962785,47.632788],[6.962677,47.63344],[6.962453,47.633654],[6.962818,47.63379],[6.96305,47.634326],[6.963993,47.634423],[6.963968,47.634754],[6.964292,47.634879],[6.964349,47.635333],[6.964773,47.635925],[6.965872,47.636186],[6.965885,47.636685],[6.966385,47.637053],[6.967595,47.63688],[6.971012,47.63675],[6.972204,47.638527],[6.972798,47.640371],[6.973959,47.642436],[6.973471,47.642715],[6.973234,47.643648],[6.972505,47.644606],[6.971795,47.646999],[6.971093,47.647592],[6.971157,47.647865],[6.970969,47.647918],[6.970755,47.648813],[6.970727,47.650014],[6.969918,47.65156],[6.970145,47.654787],[6.97101,47.654796],[6.971315,47.65579],[6.971026,47.657617],[6.971517,47.658492],[6.971248,47.659118],[6.971524,47.660419],[6.972313,47.662178],[6.972656,47.664289],[6.97185,47.668554],[6.975556,47.66871],[6.977623,47.667913],[6.977714,47.668017],[6.978024,47.667923],[6.978139,47.667603],[6.978813,47.66725],[6.981405,47.667881],[6.986766,47.668667],[6.997129,47.669705],[6.999369,47.669743],[7.000386,47.669621],[7.001629,47.669924],[7.005997,47.669397],[7.008399,47.669517],[7.009273,47.668809],[7.00964,47.668016],[7.011235,47.668308],[7.01301,47.66885],[7.017648,47.670523],[7.021706,47.671561],[7.023838,47.671948],[7.024758,47.672396],[7.028336,47.673292],[7.03745,47.675373],[7.038167,47.673903],[7.039268,47.673594],[7.041367,47.672368],[7.042678,47.672042],[7.046315,47.671544],[7.043692,47.668453],[7.041366,47.667388],[7.04079,47.665165],[7.039981,47.665071],[7.035178,47.663546],[7.035444,47.662558],[7.034814,47.661443],[7.034003,47.661251],[7.035079,47.6597],[7.036267,47.657138],[7.036877,47.655303],[7.038104,47.653011],[7.038218,47.652359],[7.039304,47.650505],[7.037815,47.650268],[7.035907,47.649494],[7.034808,47.649483],[7.034839,47.649701],[7.031035,47.649956],[7.030273,47.649246],[7.027749,47.649756],[7.024578,47.649662],[7.020337,47.6505],[7.018948,47.650917],[7.018747,47.650754],[7.019087,47.650402],[7.018516,47.650343],[7.018836,47.650135],[7.018294,47.650133],[7.017994,47.649899],[7.017718,47.649991],[7.017479,47.649865],[7.0176,47.649571],[7.01729,47.649473],[7.017222,47.648733],[7.017759,47.648251],[7.017066,47.647964],[7.017291,47.647292],[7.016506,47.646955],[7.016679,47.646769],[7.016569,47.646496],[7.017052,47.646061],[7.016501,47.645455],[7.016603,47.645036],[7.017061,47.644862],[7.016627,47.644632],[7.016991,47.644232],[7.016786,47.644116],[7.016861,47.643992],[7.017386,47.643785],[7.017555,47.643398],[7.017851,47.64323],[7.017828,47.643018],[7.018176,47.642879],[7.018299,47.642182],[7.018158,47.642049],[7.018773,47.641446],[7.019159,47.641422],[7.019282,47.641264],[7.018476,47.641188],[7.018509,47.640997],[7.015128,47.64031],[7.015003,47.640505],[7.013302,47.64012],[7.013422,47.639862],[7.012995,47.639782],[7.013037,47.639506],[7.012335,47.639318],[7.012457,47.638036],[7.012758,47.637854],[7.013634,47.637819],[7.014376,47.637521],[7.015984,47.635912],[7.013977,47.635314],[7.014049,47.63492],[7.013506,47.634801],[7.014436,47.63269],[7.012655,47.63356],[7.011493,47.633376],[7.014156,47.63227],[7.01243,47.631446],[7.014819,47.629655],[7.015389,47.628725],[7.016848,47.627084],[7.016787,47.626942],[7.015691,47.626066],[7.014327,47.625841],[7.012649,47.628647],[7.010915,47.630449],[7.005929,47.62892],[7.006401,47.628143],[7.006601,47.626416],[7.006439,47.625974],[7.006566,47.625761],[7.006134,47.625669],[7.006683,47.62523],[7.007269,47.625149],[7.006922,47.624648],[7.006942,47.624336],[7.007345,47.624187],[7.007184,47.623725],[7.007844,47.623622],[7.007979,47.623244],[7.00788,47.622958],[7.007236,47.622792],[7.007243,47.622452],[7.007559,47.622392],[7.007732,47.622084],[7.007105,47.621992],[7.006906,47.62182],[7.007516,47.621625],[7.007759,47.621333],[7.007794,47.621103],[7.007511,47.620863],[7.008127,47.620815],[7.007749,47.62037],[7.00755,47.620577],[7.007231,47.62041],[7.007964,47.619907],[7.007691,47.619675],[7.007678,47.619381],[7.006348,47.619207],[7.006172,47.619704],[7.005741,47.619769],[7.005398,47.619558],[7.00501,47.6196],[7.004957,47.61921],[7.005482,47.617383],[7.005831,47.617106],[7.005933,47.616154],[7.006566,47.615603],[7.00677,47.615632],[7.007351,47.614674],[7.007264,47.614357],[7.007735,47.614006],[7.006548,47.613422],[7.006358,47.613438],[7.00638,47.613774],[7.006081,47.613636],[7.006145,47.612968],[7.006554,47.612731],[7.006407,47.612282],[7.006606,47.612026],[7.007117,47.611837],[7.007333,47.610754],[7.007672,47.610748],[7.008135,47.611004],[7.008337,47.610942],[7.008376,47.610749],[7.007881,47.610185],[7.008866,47.609494],[7.008405,47.609409],[7.0081,47.609164],[7.00837,47.608794],[7.008726,47.607423],[7.008462,47.607294],[7.007373,47.607308],[7.007545,47.606416],[7.008103,47.605937],[7.009043,47.60621],[7.009739,47.606111],[7.010399,47.604844],[7.008219,47.604024],[7.005653,47.602104],[7.00647,47.601272],[7.007746,47.600571],[7.008162,47.600166],[7.008571,47.600104],[7.009104,47.599537],[7.010276,47.599707],[7.012035,47.600382],[7.012874,47.599224],[7.013095,47.59928],[7.014087,47.598504],[7.01458,47.598721],[7.019546,47.595934],[7.021557,47.593685],[7.021212,47.593225],[7.020337,47.592449],[7.017984,47.592725],[7.016545,47.592691],[7.015994,47.592312],[7.015782,47.591856],[7.015937,47.591576],[7.017087,47.591049],[7.017797,47.590373],[7.01964,47.590052],[7.019996,47.589546],[7.019767,47.588614],[7.020405,47.588875],[7.023161,47.588871],[7.024818,47.589204],[7.024695,47.591389],[7.025332,47.592718],[7.028459,47.59316],[7.029924,47.593709],[7.030919,47.593915],[7.034369,47.594137],[7.034081,47.594553],[7.034802,47.595656],[7.035596,47.596177],[7.035352,47.596265],[7.03562,47.596725],[7.036428,47.596756],[7.036919,47.597828],[7.037779,47.598883],[7.038612,47.599425],[7.039319,47.600346],[7.039324,47.600705],[7.039779,47.601147],[7.040452,47.600924],[7.040584,47.600997],[7.041268,47.600558],[7.044074,47.60087],[7.044579,47.600549],[7.04659,47.601043],[7.046675,47.600914],[7.047733,47.600831],[7.047705,47.600533],[7.047301,47.60041],[7.047506,47.600016],[7.047164,47.599465],[7.047579,47.598682],[7.051905,47.600494],[7.05229,47.600107],[7.053344,47.600089],[7.054353,47.598558],[7.055437,47.598646],[7.055717,47.598228],[7.055951,47.598299],[7.055764,47.598596],[7.056646,47.598755],[7.056538,47.598868],[7.057542,47.599527],[7.058106,47.59911],[7.058726,47.599403],[7.059048,47.599146],[7.059407,47.599347],[7.059301,47.599476],[7.060408,47.600051],[7.064268,47.6012],[7.066048,47.601447],[7.066807,47.599697],[7.068416,47.600319],[7.070422,47.600733],[7.071332,47.600338],[7.0702,47.599264],[7.070391,47.598754],[7.06987,47.598352],[7.069921,47.597728],[7.069627,47.597643],[7.07016,47.596334],[7.071724,47.596546],[7.072089,47.596917],[7.073621,47.597699],[7.074059,47.59892],[7.074489,47.598779],[7.074885,47.599034],[7.075126,47.59872],[7.075611,47.598721],[7.075678,47.598293],[7.076234,47.598362],[7.076802,47.598005],[7.077166,47.598075],[7.077475,47.598009],[7.077522,47.597831],[7.077739,47.597852],[7.077668,47.597578],[7.078403,47.596599],[7.0793,47.596693],[7.079817,47.596499],[7.07988,47.596297],[7.080634,47.596329],[7.080896,47.596062],[7.080757,47.595576],[7.081005,47.594923],[7.080834,47.594457],[7.081392,47.594383],[7.081844,47.593929],[7.082949,47.593701],[7.083182,47.593408],[7.083748,47.593673],[7.083996,47.593277],[7.084287,47.593246],[7.084196,47.593475],[7.084449,47.593612],[7.084851,47.593203],[7.085215,47.593327],[7.085302,47.593004],[7.085624,47.593055],[7.085652,47.592801],[7.086123,47.592915],[7.085827,47.592569],[7.086344,47.592522],[7.086127,47.592415],[7.086376,47.592138],[7.086113,47.591537],[7.086751,47.590781],[7.086694,47.590583],[7.08634,47.590449],[7.08653,47.590097],[7.086848,47.590152],[7.086763,47.589938],[7.086966,47.589714],[7.087347,47.589611],[7.087263,47.588981],[7.087519,47.588773],[7.086737,47.587873],[7.086732,47.587506],[7.086985,47.587305],[7.08667,47.587211],[7.086691,47.586946],[7.08638,47.587093],[7.086282,47.586891],[7.086008,47.586967],[7.085893,47.586765],[7.086293,47.586601],[7.085883,47.586619],[7.085839,47.586402],[7.085103,47.586119],[7.085679,47.585993],[7.085576,47.585701],[7.085719,47.585621],[7.086473,47.585691],[7.085483,47.58367],[7.085769,47.582834],[7.082407,47.578935],[7.08261,47.578767],[7.082521,47.578583],[7.079649,47.57748],[7.078767,47.578401],[7.078096,47.577441],[7.078414,47.577251],[7.077151,47.575922],[7.075372,47.575807],[7.074203,47.575041],[7.073879,47.575267],[7.071854,47.573092],[7.070178,47.574074],[7.067477,47.571938],[7.064007,47.571044],[7.063142,47.571],[7.060203,47.570268],[7.057841,47.569279],[7.056828,47.570004],[7.055991,47.570171],[7.055599,47.57042],[7.054916,47.571464],[7.056796,47.571976],[7.055716,47.572685],[7.054914,47.573521],[7.053831,47.574025],[7.0539,47.574464],[7.055378,47.575814],[7.055524,47.576783],[7.054476,47.576276],[7.054225,47.576799],[7.053769,47.577095],[7.05181,47.577799],[7.050512,47.576632],[7.0488,47.577609],[7.046248,47.579508],[7.046774,47.581615],[7.047203,47.58237],[7.041591,47.580913],[7.041485,47.581256],[7.04112,47.581301],[7.040483,47.582532],[7.037054,47.582017],[7.034435,47.579696],[7.030724,47.575441],[7.026067,47.569682],[7.023831,47.565807],[7.022219,47.564422],[7.02194,47.563931],[7.021648,47.563979],[7.021552,47.56292],[7.021582,47.562684],[7.025751,47.562856],[7.028108,47.56187],[7.028252,47.561125],[7.027452,47.560021],[7.027953,47.558982],[7.030132,47.557593],[7.030496,47.557466],[7.030848,47.557524],[7.030974,47.557303],[7.031209,47.557393],[7.031634,47.557223],[7.031977,47.557321],[7.032527,47.556716],[7.033005,47.556678],[7.033266,47.556091],[7.033071,47.553525],[7.033368,47.55275],[7.032933,47.551839],[7.033449,47.550475],[7.033805,47.550127],[7.034466,47.550092],[7.036562,47.54923],[7.036686,47.548833],[7.03815,47.547983],[7.039589,47.546257],[7.039467,47.544808],[7.038909,47.544262],[7.038027,47.543972],[7.035089,47.543446],[7.032524,47.543305],[7.027949,47.541802],[7.02681,47.544075],[7.026237,47.544857],[7.025901,47.544987],[7.025118,47.544957],[7.022303,47.544301],[7.020996,47.544479],[7.019344,47.545078],[7.018631,47.545129],[7.013912,47.543917],[7.011603,47.545517],[7.011452,47.545809],[7.011145,47.545983],[7.010132,47.546075],[7.010088,47.546408],[7.004921,47.545639],[7.002588,47.54589],[7.000085,47.546685],[6.998837,47.546776],[6.996661,47.547268],[6.994089,47.548637],[6.993294,47.549385],[6.992447,47.549647],[6.992943,47.551883],[6.992908,47.555514],[6.993865,47.556785],[6.996862,47.557969],[6.997656,47.558556],[6.997527,47.56002],[6.997192,47.560676],[6.997243,47.562329],[6.993626,47.562064],[6.991859,47.561673],[6.987408,47.560304],[6.985285,47.559495],[6.983124,47.560872],[6.98146,47.561574],[6.980039,47.562656],[6.981001,47.563567],[6.980802,47.563746],[6.975867,47.562912],[6.97451,47.563616],[6.973321,47.564614],[6.970056,47.56481],[6.966836,47.565684],[6.965762,47.564466],[6.963973,47.565052],[6.963259,47.565537],[6.962674,47.565633],[6.961819,47.566316],[6.960259,47.567049],[6.9596,47.568857],[6.958508,47.569152],[6.955087,47.572436],[6.955862,47.572803],[6.955479,47.572988],[6.9543,47.574457],[6.954866,47.575029],[6.955734,47.575212],[6.95668,47.576012],[6.957109,47.575945],[6.958676,47.576244],[6.961245,47.577064],[6.961715,47.577981],[6.961418,47.578779],[6.961827,47.581622],[6.962548,47.582125],[6.961778,47.582384],[6.961642,47.582024],[6.961021,47.581697],[6.960671,47.581141],[6.96019,47.581005],[6.96003,47.579758],[6.959807,47.579584],[6.958749,47.579388],[6.958186,47.579846],[6.956903,47.58006],[6.957069,47.580516],[6.956475,47.580781],[6.956918,47.580976],[6.957683,47.581682],[6.957542,47.582581],[6.958413,47.584005],[6.958325,47.584879],[6.958664,47.585601],[6.958687,47.586187],[6.957092,47.586321],[6.957319,47.58721],[6.956771,47.587275],[6.95672,47.587708],[6.955753,47.588205],[6.954976,47.588351],[6.954815,47.588686],[6.953876,47.589031],[6.953899,47.589288],[6.952991,47.589935],[6.951904,47.590059],[6.951492,47.590363],[6.951121,47.591289],[6.951533,47.592034],[6.951471,47.59243],[6.951745,47.592387],[6.951859,47.592555],[6.951919,47.593874],[6.952412,47.594069],[6.951739,47.594109],[6.951725,47.593399],[6.950725,47.593244],[6.947467,47.59398],[6.947376,47.594452],[6.946267,47.594695],[6.946105,47.594225],[6.944474,47.594435],[6.943947,47.596816],[6.944503,47.597153],[6.943051,47.597523],[6.944323,47.600676],[6.94617,47.603853],[6.945358,47.603991],[6.943746,47.604846],[6.942797,47.60495],[6.942909,47.60573],[6.943488,47.606851],[6.944139,47.60764],[6.945635,47.608701],[6.947718,47.608213],[6.948981,47.609193],[6.94895,47.61041],[6.949804,47.611552],[6.949939,47.612758],[6.94961,47.615044],[6.948699,47.615936],[6.948026,47.617967],[6.947918,47.62023],[6.947201,47.621534],[6.947928,47.622794],[6.949182,47.62299],[6.949762,47.623466],[6.950145,47.623185],[6.950455,47.624243],[6.95007,47.624564],[6.950573,47.624624],[6.950684,47.625024],[6.951028,47.625252],[6.952224,47.625535],[6.952318,47.626753],[6.951824,47.627987],[6.952605,47.628298],[6.957062,47.628417],[6.960173,47.628214],[6.962226,47.628498]]]}},{"type":"Feature","properties":{"uai_primary":"0900013A","uai_all":"0900013A","is_merged":false},"geometry":{"type":"Polygon","coordinates":[[[7.038104,47.692961],[7.038231,47.692621],[7.037181,47.692541],[7.037187,47.692235],[7.036364,47.692157],[7.036466,47.69091],[7.036784,47.69094],[7.038581,47.687831],[7.03798,47.687438],[7.038466,47.686768],[7.039201,47.686621],[7.040103,47.685965],[7.041105,47.685753],[7.041781,47.685934],[7.043072,47.685866],[7.044042,47.685474],[7.043973,47.685195],[7.04647,47.684569],[7.047523,47.684808],[7.047614,47.684643],[7.048135,47.684514],[7.047452,47.682668],[7.048418,47.68211],[7.044987,47.681643],[7.042677,47.681116],[7.043316,47.680599],[7.042678,47.680201],[7.042929,47.679494],[7.041299,47.67924],[7.041336,47.67862],[7.038904,47.678546],[7.038857,47.678106],[7.039147,47.677578],[7.038806,47.677481],[7.038753,47.676278],[7.037545,47.676355],[7.03745,47.675373],[7.028336,47.673292],[7.024758,47.672396],[7.023838,47.671948],[7.021706,47.671561],[7.017648,47.670523],[7.01301,47.66885],[7.011235,47.668308],[7.00964,47.668016],[7.009273,47.668809],[7.008399,47.669517],[7.005997,47.669397],[7.001629,47.669924],[7.000386,47.669621],[6.999369,47.669743],[6.997129,47.669705],[6.986766,47.668667],[6.981405,47.667881],[6.978813,47.66725],[6.978139,47.667603],[6.978024,47.667923],[6.977714,47.668017],[6.977623,47.667913],[6.975556,47.66871],[6.97185,47.668554],[6.972552,47.672275],[6.973705,47.673691],[6.963155,47.670526],[6.96194,47.672054],[6.962368,47.673442],[6.962249,47.673955],[6.962594,47.675631],[6.961645,47.679655],[6.959885,47.679657],[6.959963,47.681192],[6.960851,47.681621],[6.96055,47.68204],[6.960022,47.682321],[6.960249,47.682952],[6.959423,47.685451],[6.958236,47.686452],[6.957798,47.688892],[6.957228,47.689526],[6.95741,47.689651],[6.9568,47.690943],[6.954877,47.693078],[6.954688,47.692821],[6.950163,47.692119],[6.943575,47.693085],[6.94306,47.693189],[6.94256,47.693618],[6.941963,47.693374],[6.941401,47.693808],[6.940999,47.693627],[6.938473,47.693977],[6.933549,47.692783],[6.930667,47.691878],[6.926703,47.690248],[6.924961,47.690357],[6.923183,47.690108],[6.920553,47.689205],[6.918613,47.68818],[6.917467,47.689497],[6.915768,47.68989],[6.913932,47.690631],[6.911055,47.690458],[6.908047,47.691011],[6.904738,47.690729],[6.90266,47.693865],[6.901854,47.694472],[6.898397,47.693179],[6.893049,47.692462],[6.892264,47.692723],[6.890468,47.694484],[6.890536,47.695382],[6.890828,47.695939],[6.89055,47.696406],[6.891042,47.697511],[6.892106,47.698364],[6.891243,47.698588],[6.891003,47.698867],[6.890704,47.700424],[6.891116,47.702233],[6.892473,47.703294],[6.892605,47.704266],[6.892118,47.705556],[6.8923,47.705675],[6.892144,47.707063],[6.892507,47.707555],[6.892713,47.708597],[6.89401,47.709807],[6.894841,47.711896],[6.895185,47.711999],[6.895382,47.713229],[6.89839,47.713237],[6.901166,47.713612],[6.90336,47.714696],[6.906026,47.715426],[6.908436,47.718002],[6.908802,47.720411],[6.908392,47.722215],[6.906843,47.723507],[6.903784,47.732383],[6.897177,47.738124],[6.891403,47.745832],[6.889069,47.750243],[6.888283,47.75078],[6.8888,47.751133],[6.889008,47.751814],[6.888872,47.752348],[6.888058,47.75354],[6.890435,47.755363],[6.890858,47.756147],[6.893274,47.758051],[6.893462,47.758382],[6.893395,47.759177],[6.894366,47.760919],[6.895252,47.761635],[6.895437,47.76228],[6.897704,47.764494],[6.897915,47.765306],[6.898733,47.765717],[6.901325,47.765741],[6.905426,47.766787],[6.90495,47.769671],[6.903638,47.7711],[6.902299,47.776633],[6.903432,47.777159],[6.905034,47.777469],[6.906436,47.7775],[6.907538,47.777697],[6.908505,47.777554],[6.910912,47.778072],[6.911362,47.778064],[6.913616,47.777376],[6.916821,47.775765],[6.918846,47.774055],[6.922194,47.77282],[6.92229,47.772401],[6.924512,47.769925],[6.925451,47.76956],[6.929569,47.76953],[6.931658,47.7697],[6.934399,47.771541],[6.9386,47.77173],[6.939982,47.771661],[6.940641,47.771332],[6.942547,47.768635],[6.943466,47.766559],[6.944465,47.766223],[6.945857,47.765372],[6.947243,47.765136],[6.949587,47.765017],[6.952114,47.764419],[6.954437,47.761167],[6.955873,47.760375],[6.957241,47.75987],[6.95985,47.759592],[6.961798,47.758457],[6.963099,47.756748],[6.964184,47.755991],[6.970616,47.754191],[6.970608,47.753829],[6.971404,47.752366],[6.972173,47.751581],[6.975487,47.750934],[6.978719,47.751413],[6.98109,47.751401],[6.982066,47.751223],[6.983115,47.750828],[6.985159,47.749113],[6.987477,47.748254],[6.991933,47.747327],[6.995301,47.746193],[6.999011,47.745953],[7.003866,47.744297],[7.004926,47.743515],[7.006192,47.743138],[7.010529,47.742494],[7.012892,47.741445],[7.015834,47.743804],[7.017883,47.740195],[7.019404,47.73662],[7.021898,47.733218],[7.022745,47.732563],[7.024554,47.731719],[7.025217,47.73157],[7.026767,47.729602],[7.027816,47.729202],[7.028714,47.72916],[7.02968,47.728654],[7.029902,47.72833],[7.03062,47.727964],[7.030658,47.727669],[7.031423,47.72703],[7.032425,47.726405],[7.032486,47.726114],[7.032769,47.726267],[7.035158,47.72462],[7.037785,47.721622],[7.035865,47.72136],[7.036121,47.720733],[7.036151,47.71894],[7.036819,47.718148],[7.037807,47.718155],[7.037786,47.717979],[7.037486,47.717597],[7.036665,47.717079],[7.034524,47.716253],[7.032353,47.71258],[7.029507,47.708743],[7.027553,47.705349],[7.027561,47.703567],[7.027212,47.702748],[7.027235,47.702011],[7.026752,47.70167],[7.026476,47.700963],[7.027515,47.700499],[7.029041,47.700367],[7.030911,47.699588],[7.033817,47.699651],[7.033129,47.697156],[7.032871,47.695352],[7.037307,47.694721],[7.037806,47.694136],[7.03773,47.693875],[7.038104,47.692961]]]}},{"type":"Feature","properties":{"uai_primary":"0900014B","uai_all":"0900014B","is_merged":false},"geometry":{"type":"Polygon","coordinates":[[[6.780091,47.689879],[6.780174,47.689769],[6.787729,47.690292],[6.795316,47.690091],[6.801332,47.691903],[6.804995,47.691855],[6.807758,47.693407],[6.808586,47.693604],[6.808945,47.692888],[6.809507,47.692685],[6.809858,47.693193],[6.809773,47.693816],[6.810196,47.693843],[6.811437,47.692929],[6.812524,47.69169],[6.815544,47.692714],[6.81611,47.693403],[6.816331,47.694059],[6.818136,47.69489],[6.819711,47.695369],[6.824732,47.696347],[6.825375,47.696863],[6.829088,47.698161],[6.831584,47.69847],[6.831621,47.697342],[6.832019,47.697326],[6.832778,47.697612],[6.835399,47.697827],[6.836359,47.69815],[6.837599,47.698299],[6.837591,47.698146],[6.83989,47.698063],[6.840769,47.698548],[6.842964,47.697934],[6.848016,47.697542],[6.852558,47.697437],[6.853387,47.697769],[6.860173,47.698988],[6.861714,47.700053],[6.880642,47.69851],[6.88251,47.698059],[6.886849,47.696459],[6.887329,47.69647],[6.888499,47.694534],[6.889202,47.694803],[6.890468,47.694484],[6.892264,47.692723],[6.890866,47.691044],[6.890292,47.689939],[6.890169,47.689249],[6.890931,47.686568],[6.886357,47.684739],[6.885687,47.682862],[6.885886,47.681659],[6.885516,47.680279],[6.885139,47.67993],[6.88421,47.679627],[6.884292,47.679085],[6.885113,47.678166],[6.885651,47.678166],[6.886383,47.676052],[6.8852,47.67399],[6.884737,47.673973],[6.863687,47.678114],[6.863276,47.677389],[6.863571,47.675838],[6.864947,47.673986],[6.865679,47.671732],[6.865649,47.671016],[6.86517,47.669593],[6.865301,47.667936],[6.854163,47.660381],[6.852403,47.660621],[6.851698,47.660342],[6.850317,47.661165],[6.851892,47.660059],[6.850481,47.659395],[6.849697,47.658656],[6.850073,47.657639],[6.849355,47.656889],[6.849312,47.656621],[6.849625,47.65631],[6.849038,47.656045],[6.849084,47.655856],[6.84886,47.655853],[6.848765,47.656128],[6.847902,47.656054],[6.847676,47.65591],[6.847379,47.655989],[6.84691,47.655624],[6.846493,47.655756],[6.846018,47.656178],[6.845683,47.655936],[6.844715,47.656189],[6.844199,47.656177],[6.844025,47.656426],[6.843741,47.656419],[6.84339,47.656675],[6.842979,47.656587],[6.842885,47.656433],[6.843203,47.656053],[6.842659,47.655705],[6.842146,47.65604],[6.841803,47.657034],[6.841367,47.65752],[6.840596,47.657527],[6.840168,47.658068],[6.838761,47.658371],[6.838223,47.658351],[6.837532,47.658673],[6.837198,47.658406],[6.836776,47.658474],[6.836563,47.657574],[6.837229,47.656771],[6.838487,47.656415],[6.83861,47.655172],[6.837919,47.654414],[6.83777,47.653513],[6.836687,47.653194],[6.836699,47.651183],[6.836467,47.650316],[6.835356,47.647734],[6.834881,47.647152],[6.832598,47.647082],[6.831881,47.648171],[6.830179,47.649613],[6.827517,47.651328],[6.8266,47.651528],[6.824957,47.651488],[6.821395,47.650022],[6.819382,47.648463],[6.818396,47.647999],[6.817543,47.647069],[6.816831,47.646587],[6.815375,47.647205],[6.814873,47.647776],[6.81395,47.648368],[6.810889,47.652337],[6.810204,47.652925],[6.810916,47.652956],[6.811969,47.652667],[6.813074,47.652675],[6.814447,47.65293],[6.815812,47.652979],[6.816969,47.653427],[6.817686,47.653422],[6.818377,47.652801],[6.819528,47.652185],[6.822365,47.653607],[6.814931,47.655359],[6.789211,47.658045],[6.787451,47.657361],[6.78717,47.656552],[6.787431,47.65537],[6.787301,47.655318],[6.783877,47.654802],[6.781216,47.655588],[6.78091,47.655915],[6.780908,47.656681],[6.780712,47.656733],[6.780294,47.656524],[6.779552,47.656667],[6.779994,47.657407],[6.781152,47.658597],[6.781564,47.659993],[6.782225,47.660401],[6.781734,47.660973],[6.781891,47.662279],[6.781558,47.662637],[6.77728,47.665108],[6.776129,47.668079],[6.776104,47.668575],[6.778147,47.672281],[6.778581,47.67348],[6.778647,47.675865],[6.772393,47.675842],[6.772356,47.676026],[6.771181,47.675979],[6.77065,47.677232],[6.770203,47.677734],[6.769423,47.678084],[6.768382,47.678273],[6.767757,47.67796],[6.766669,47.678233],[6.766146,47.678133],[6.761695,47.678387],[6.760388,47.678828],[6.757802,47.68104],[6.756922,47.681096],[6.756122,47.68094],[6.755882,47.681122],[6.754775,47.681164],[6.753081,47.681697],[6.753926,47.682527],[6.755254,47.683243],[6.755634,47.683813],[6.755762,47.68534],[6.755999,47.685781],[6.757909,47.687513],[6.758453,47.687511],[6.759479,47.687917],[6.761264,47.688876],[6.763535,47.688963],[6.766342,47.689316],[6.76752,47.688946],[6.769621,47.690201],[6.770065,47.691047],[6.769981,47.691396],[6.770442,47.692037],[6.770383,47.692631],[6.76944,47.693369],[6.767463,47.694328],[6.767275,47.69515],[6.766409,47.695886],[6.766256,47.696812],[6.766459,47.697928],[6.766885,47.69835],[6.767704,47.698659],[6.767954,47.698966],[6.767609,47.70068],[6.769446,47.702382],[6.770079,47.703398],[6.770531,47.701623],[6.770951,47.701067],[6.77183,47.700403],[6.773934,47.699242],[6.777783,47.698194],[6.778148,47.697775],[6.77887,47.696036],[6.779412,47.69534],[6.778811,47.693741],[6.77922,47.69305],[6.779788,47.69028],[6.780091,47.689879]],[[6.835069,47.658557],[6.824264,47.656073],[6.828902,47.656069],[6.832032,47.656865],[6.834132,47.656752],[6.834675,47.656847],[6.835025,47.657735],[6.835069,47.658557]]]}},{"type":"Feature","properties":{"uai_primary":"0900017E","uai_all":"0900017E","is_merged":false},"geometry":{"type":"Polygon","coordinates":[[[6.842312,47.652152],[6.84168,47.65371],[6.84041,47.654458],[6.838599,47.655145],[6.838487,47.656415],[6.837229,47.656771],[6.836563,47.657574],[6.836776,47.658474],[6.837198,47.658406],[6.837532,47.658673],[6.838223,47.658351],[6.838761,47.658371],[6.840168,47.658068],[6.840596,47.657527],[6.841367,47.65752],[6.841803,47.657034],[6.842146,47.65604],[6.842659,47.655705],[6.843203,47.656053],[6.842885,47.656433],[6.842979,47.656587],[6.84339,47.656675],[6.843741,47.656419],[6.844025,47.656426],[6.844199,47.656177],[6.844715,47.656189],[6.845683,47.655936],[6.846018,47.656178],[6.846493,47.655756],[6.84691,47.655624],[6.847379,47.655989],[6.847676,47.65591],[6.847902,47.656054],[6.848765,47.656128],[6.84886,47.655853],[6.849084,47.655856],[6.849038,47.656045],[6.849592,47.656277],[6.849312,47.656621],[6.849355,47.656889],[6.850073,47.657639],[6.849697,47.658656],[6.850481,47.659395],[6.851892,47.660059],[6.853994,47.658658],[6.854914,47.657707],[6.862101,47.654549],[6.864445,47.654373],[6.875464,47.652071],[6.876277,47.649907],[6.87543,47.649104],[6.874336,47.648528],[6.872534,47.647861],[6.87096,47.647947],[6.870034,47.647716],[6.867914,47.647495],[6.867363,47.647191],[6.866233,47.645916],[6.865438,47.645624],[6.863959,47.644575],[6.863428,47.643599],[6.863932,47.643006],[6.86384,47.642283],[6.862769,47.642122],[6.861556,47.642559],[6.860352,47.641185],[6.859697,47.641199],[6.859135,47.64197],[6.857737,47.642132],[6.857377,47.641804],[6.855819,47.641651],[6.853366,47.64184],[6.85114,47.641274],[6.850229,47.641439],[6.850009,47.642769],[6.849416,47.643011],[6.849091,47.643424],[6.846908,47.644058],[6.846285,47.644617],[6.847196,47.645585],[6.847158,47.645921],[6.84651,47.646383],[6.846589,47.647008],[6.846312,47.647316],[6.843372,47.647828],[6.842566,47.648203],[6.841294,47.650077],[6.842312,47.652152]],[[6.828431,47.656062],[6.824264,47.656073],[6.835069,47.658557],[6.835025,47.657735],[6.834675,47.656847],[6.834132,47.656752],[6.832032,47.656865],[6.828902,47.656069],[6.828431,47.656062]]]}},{"type":"Feature","properties":{"uai_primary":"0900018F","uai_all":"0900018F","is_merged":false},"geometry":{"type":"Polygon","coordinates":[[[6.874462,47.640195],[6.875218,47.640018],[6.876093,47.640397],[6.876629,47.640199],[6.876973,47.640548],[6.877394,47.640103],[6.87703,47.63943],[6.876755,47.639366],[6.876193,47.639853],[6.875297,47.639799],[6.875302,47.639142],[6.875141,47.639059],[6.873829,47.63923],[6.874462,47.640195]],[[6.877528,47.640133],[6.878331,47.640682],[6.878523,47.639735],[6.877528,47.640133]],[[6.814931,47.655359],[6.822365,47.653607],[6.819528,47.652185],[6.818377,47.652801],[6.817686,47.653422],[6.816969,47.653427],[6.815812,47.652979],[6.811969,47.652667],[6.810916,47.652956],[6.810738,47.652861],[6.809617,47.653014],[6.80696,47.653742],[6.805936,47.653669],[6.805399,47.653426],[6.804148,47.653326],[6.801926,47.652221],[6.800305,47.651671],[6.79899,47.650558],[6.798397,47.650495],[6.796213,47.652152],[6.794518,47.653153],[6.791728,47.655641],[6.790614,47.654914],[6.788674,47.654477],[6.787677,47.655004],[6.787239,47.655656],[6.78717,47.656552],[6.787665,47.657523],[6.788623,47.657741],[6.789211,47.658045],[6.814931,47.655359]],[[6.895216,47.658197],[6.895873,47.658518],[6.896548,47.658063],[6.89408,47.654874],[6.893482,47.654369],[6.8898,47.652815],[6.886243,47.652104],[6.884612,47.649299],[6.882843,47.646925],[6.880764,47.644721],[6.879196,47.643985],[6.877214,47.643389],[6.87445,47.641469],[6.872891,47.641331],[6.871458,47.640609],[6.871378,47.64035],[6.869611,47.639548],[6.869727,47.639093],[6.869258,47.63876],[6.867816,47.6382],[6.867799,47.637728],[6.866764,47.636629],[6.866399,47.635496],[6.866809,47.63549],[6.869265,47.634719],[6.869734,47.634354],[6.869707,47.634194],[6.868894,47.633717],[6.866162,47.634443],[6.865079,47.631814],[6.864992,47.630999],[6.864159,47.631059],[6.864076,47.630679],[6.863542,47.630951],[6.863393,47.630817],[6.86292,47.631019],[6.863176,47.631554],[6.862734,47.631673],[6.862081,47.631272],[6.861699,47.631747],[6.861656,47.63254],[6.860299,47.634797],[6.86064,47.635747],[6.859562,47.636305],[6.858712,47.636049],[6.858336,47.636549],[6.857775,47.636623],[6.857899,47.637007],[6.857564,47.637354],[6.856999,47.63644],[6.856213,47.636133],[6.855553,47.636129],[6.854819,47.635869],[6.854946,47.635224],[6.85315,47.634616],[6.852907,47.634938],[6.853509,47.635156],[6.853438,47.63536],[6.854263,47.635858],[6.85447,47.635811],[6.854484,47.636012],[6.853635,47.636327],[6.853256,47.636075],[6.852685,47.636204],[6.852699,47.635973],[6.852337,47.635801],[6.852137,47.636283],[6.851675,47.636655],[6.851388,47.637473],[6.850716,47.638042],[6.850253,47.637831],[6.848672,47.637681],[6.847745,47.637072],[6.846975,47.637315],[6.845748,47.637177],[6.844992,47.637342],[6.844108,47.637004],[6.842908,47.637075],[6.842785,47.636937],[6.842332,47.636897],[6.842053,47.637002],[6.841766,47.636792],[6.840536,47.636652],[6.839551,47.636786],[6.83856,47.636336],[6.837992,47.636652],[6.837498,47.636284],[6.835705,47.636132],[6.835421,47.635978],[6.834846,47.636029],[6.833626,47.638283],[6.831915,47.639936],[6.830231,47.640622],[6.827924,47.641901],[6.828162,47.645364],[6.824634,47.647215],[6.818526,47.646184],[6.816831,47.646587],[6.817543,47.647069],[6.818396,47.647999],[6.819382,47.648463],[6.821395,47.650022],[6.824957,47.651488],[6.8266,47.651528],[6.827517,47.651328],[6.830179,47.649613],[6.831881,47.648171],[6.832598,47.647082],[6.834107,47.647204],[6.83471,47.647077],[6.835356,47.647734],[6.836164,47.649361],[6.836699,47.651183],[6.836687,47.653194],[6.83777,47.653513],[6.837919,47.654414],[6.838599,47.655145],[6.84041,47.654458],[6.84168,47.65371],[6.841811,47.653484],[6.842316,47.652113],[6.841294,47.650077],[6.842566,47.648203],[6.843372,47.647828],[6.846312,47.647316],[6.846589,47.647008],[6.84651,47.646383],[6.847158,47.645921],[6.847196,47.645585],[6.846285,47.644617],[6.846908,47.644058],[6.849091,47.643424],[6.849416,47.643011],[6.850009,47.642769],[6.850229,47.641439],[6.85114,47.641274],[6.853366,47.64184],[6.855819,47.641651],[6.857377,47.641804],[6.857737,47.642132],[6.859135,47.64197],[6.859697,47.641199],[6.860352,47.641185],[6.861556,47.642559],[6.862769,47.642122],[6.86384,47.642283],[6.863932,47.643006],[6.863428,47.643599],[6.863959,47.644575],[6.865438,47.645624],[6.866233,47.645916],[6.867363,47.647191],[6.867914,47.647495],[6.870034,47.647716],[6.87096,47.647947],[6.872534,47.647861],[6.874336,47.648528],[6.87543,47.649104],[6.876277,47.649907],[6.875464,47.652071],[6.864445,47.654373],[6.862101,47.654549],[6.854914,47.657707],[6.853994,47.658658],[6.850317,47.661165],[6.851698,47.660342],[6.852403,47.660621],[6.854163,47.660381],[6.865301,47.667936],[6.86517,47.669593],[6.865649,47.671016],[6.865679,47.671732],[6.864947,47.673986],[6.863571,47.675838],[6.863276,47.677389],[6.863687,47.678114],[6.884737,47.673973],[6.8852,47.67399],[6.88449,47.673306],[6.883781,47.671799],[6.882839,47.671267],[6.882553,47.670864],[6.882718,47.668761],[6.881761,47.666406],[6.881895,47.665858],[6.88451,47.666997],[6.884859,47.666544],[6.885327,47.666452],[6.886574,47.666837],[6.88909,47.667211],[6.889189,47.666843],[6.888771,47.66679],[6.888859,47.666577],[6.887596,47.666438],[6.888176,47.665228],[6.888349,47.665277],[6.888609,47.664867],[6.888495,47.664455],[6.889159,47.664766],[6.889822,47.663827],[6.889318,47.663558],[6.890884,47.661927],[6.89064,47.661798],[6.892587,47.659654],[6.893308,47.659872],[6.89456,47.658561],[6.895216,47.658197]]]}},{"type":"Feature","properties":{"uai_primary":"0900237U","uai_all":"0900237U","is_merged":false},"geometry":{"type":"Polygon","coordinates":[[[6.855188,47.626232],[6.855259,47.626341],[6.857821,47.626157],[6.858953,47.626633],[6.860588,47.62514],[6.861052,47.624257],[6.87287,47.62718],[6.879443,47.6301],[6.884097,47.628531],[6.8885,47.624811],[6.89009,47.622179],[6.890176,47.621574],[6.8899,47.621471],[6.889231,47.620633],[6.885772,47.615627],[6.884966,47.613847],[6.884231,47.611307],[6.880986,47.610755],[6.880986,47.610554],[6.882065,47.610721],[6.891245,47.610873],[6.891399,47.610644],[6.891303,47.60988],[6.890958,47.609365],[6.891061,47.608944],[6.892072,47.608906],[6.89181,47.607473],[6.892057,47.607144],[6.892354,47.607146],[6.892049,47.606621],[6.894036,47.606856],[6.896129,47.606814],[6.895818,47.605772],[6.896498,47.605881],[6.89662,47.604967],[6.897072,47.603996],[6.897901,47.603873],[6.898162,47.604249],[6.89968,47.604607],[6.902645,47.604164],[6.902585,47.604014],[6.905458,47.603563],[6.905428,47.603462],[6.906774,47.603158],[6.908971,47.600756],[6.91209,47.59961],[6.921258,47.599383],[6.924391,47.598192],[6.92397,47.597442],[6.923266,47.596847],[6.920478,47.596629],[6.938485,47.594082],[6.939177,47.594072],[6.944185,47.595985],[6.944474,47.594435],[6.946105,47.594225],[6.946267,47.594695],[6.947376,47.594452],[6.947467,47.59398],[6.950725,47.593244],[6.948401,47.593021],[6.947323,47.591753],[6.946979,47.590238],[6.944915,47.589535],[6.942167,47.590024],[6.939917,47.58815],[6.938156,47.587225],[6.935067,47.586171],[6.93351,47.585879],[6.931674,47.583129],[6.926006,47.580098],[6.921948,47.578127],[6.919609,47.579403],[6.91804,47.581044],[6.917833,47.580953],[6.91648,47.581586],[6.914741,47.581938],[6.913317,47.58151],[6.912656,47.581996],[6.911543,47.582195],[6.91146,47.582324],[6.898935,47.581446],[6.895841,47.581375],[6.894161,47.58149],[6.892093,47.580864],[6.888192,47.580258],[6.884546,47.580874],[6.884239,47.579671],[6.883518,47.578773],[6.882212,47.574648],[6.881931,47.574775],[6.881554,47.574663],[6.880325,47.573843],[6.879937,47.57387],[6.877568,47.572311],[6.876504,47.569948],[6.875442,47.568236],[6.873302,47.567347],[6.87536,47.565842],[6.877452,47.563596],[6.877699,47.562871],[6.878535,47.562997],[6.880354,47.562949],[6.881518,47.56064],[6.882972,47.559532],[6.883367,47.558354],[6.883369,47.555507],[6.880487,47.554133],[6.877706,47.553144],[6.877196,47.552824],[6.876254,47.553474],[6.876029,47.553311],[6.875861,47.553369],[6.874328,47.551317],[6.874147,47.551367],[6.872906,47.550909],[6.871375,47.550729],[6.870116,47.550785],[6.869211,47.550983],[6.867962,47.550796],[6.867856,47.55061],[6.866307,47.550799],[6.866389,47.550382],[6.86108,47.549197],[6.861001,47.547732],[6.859437,47.547662],[6.850328,47.548245],[6.847431,47.548137],[6.843794,47.547431],[6.84075,47.54804],[6.838215,47.548216],[6.836218,47.548158],[6.834442,47.547369],[6.831846,47.546569],[6.830637,47.546436],[6.828777,47.546462],[6.825344,47.546775],[6.81678,47.547829],[6.816703,47.548212],[6.815753,47.548862],[6.812609,47.555151],[6.811382,47.556369],[6.809814,47.557511],[6.809268,47.558928],[6.807087,47.563066],[6.808222,47.564689],[6.808716,47.566607],[6.810351,47.569427],[6.816983,47.571513],[6.821728,47.573312],[6.821224,47.57444],[6.820325,47.575456],[6.821974,47.577807],[6.822782,47.579488],[6.823661,47.583584],[6.82495,47.58616],[6.827329,47.588908],[6.826964,47.591698],[6.826584,47.592179],[6.827839,47.59285],[6.828371,47.59283],[6.828025,47.593694],[6.829349,47.594864],[6.831727,47.596343],[6.832248,47.596984],[6.832681,47.597164],[6.834114,47.598553],[6.835898,47.599161],[6.836963,47.599925],[6.839041,47.60091],[6.839262,47.6028],[6.840208,47.602878],[6.839664,47.603099],[6.839706,47.603383],[6.83944,47.603702],[6.840182,47.60381],[6.840609,47.604157],[6.840067,47.604321],[6.840104,47.604636],[6.839235,47.605055],[6.839295,47.60541],[6.838722,47.60673],[6.838752,47.607405],[6.838989,47.60695],[6.839304,47.607353],[6.839214,47.608376],[6.839833,47.609058],[6.839884,47.61117],[6.843086,47.6129],[6.846714,47.616352],[6.847332,47.619421],[6.847205,47.62197],[6.847893,47.621201],[6.849067,47.620916],[6.848837,47.620777],[6.848975,47.620321],[6.849683,47.62042],[6.852505,47.620339],[6.853626,47.622386],[6.854317,47.624885],[6.855188,47.626232]]]}},{"type":"Feature","properties":{"uai_primary":"0900275K","uai_all":"0900275K","is_merged":false},"geometry":{"type":"Polygon","coordinates":[[[6.924842,47.519221],[6.925259,47.519574],[6.927,47.518751],[6.927979,47.518468],[6.93214,47.519167],[6.932733,47.519099],[6.934611,47.517763],[6.935629,47.517992],[6.936486,47.517913],[6.937574,47.517419],[6.937692,47.517235],[6.938214,47.517124],[6.942764,47.51361],[6.945001,47.51334],[6.946487,47.514362],[6.947309,47.514646],[6.948899,47.514582],[6.949651,47.514687],[6.949443,47.516095],[6.951863,47.516536],[6.952986,47.516447],[6.958029,47.51557],[6.960439,47.514978],[6.965934,47.513182],[6.967614,47.511854],[6.96876,47.511267],[6.969856,47.511081],[6.969918,47.506659],[6.966197,47.505998],[6.96609,47.503112],[6.963655,47.495905],[6.960434,47.496289],[6.960409,47.493589],[6.956694,47.493937],[6.955672,47.490596],[6.95377,47.490158],[6.95355,47.489955],[6.952405,47.485081],[6.954877,47.484028],[6.957313,47.482404],[6.960235,47.481796],[6.962654,47.481478],[6.96994,47.47935],[6.970093,47.478849],[6.972214,47.477417],[6.981422,47.473143],[6.988296,47.473102],[6.990242,47.472402],[6.991552,47.47213],[6.992533,47.471644],[6.99316,47.470721],[6.991358,47.468763],[6.990833,47.467607],[6.991134,47.466935],[6.991705,47.4664],[7.000485,47.467202],[6.999793,47.464969],[7.001286,47.461921],[6.999518,47.461074],[6.997889,47.459846],[6.998248,47.459734],[6.99754,47.456429],[7.001436,47.455977],[7.002182,47.454163],[6.999118,47.452475],[6.99588,47.449648],[6.993135,47.448725],[6.990195,47.447979],[6.987808,47.447761],[6.984066,47.448188],[6.980982,47.449234],[6.97526,47.447766],[6.973891,47.447748],[6.973421,47.447174],[6.970286,47.44711],[6.966284,47.437652],[6.963712,47.435794],[6.95757,47.433811],[6.954956,47.435267],[6.947071,47.434005],[6.944396,47.433859],[6.941913,47.433915],[6.940303,47.433323],[6.939102,47.433613],[6.938596,47.434336],[6.937278,47.43534],[6.93601,47.43712],[6.933682,47.439484],[6.932979,47.44062],[6.935627,47.443727],[6.935764,47.444248],[6.934632,47.448753],[6.934844,47.449664],[6.93431,47.450874],[6.93397,47.451239],[6.933134,47.45156],[6.932481,47.452604],[6.932508,47.455847],[6.930746,47.458359],[6.930046,47.458873],[6.929166,47.459305],[6.92627,47.459618],[6.925074,47.460386],[6.924497,47.462081],[6.922242,47.46221],[6.922,47.46249],[6.922253,47.463877],[6.921828,47.46511],[6.922392,47.466259],[6.92352,47.467025],[6.921207,47.467161],[6.920589,47.468554],[6.914615,47.469315],[6.91388,47.469254],[6.912963,47.470191],[6.912445,47.471112],[6.909417,47.472223],[6.909079,47.47269],[6.907821,47.472944],[6.906526,47.472963],[6.904359,47.473715],[6.90368,47.473669],[6.900939,47.472932],[6.895465,47.471827],[6.893627,47.471842],[6.891854,47.471572],[6.891827,47.471077],[6.889,47.471226],[6.888771,47.470119],[6.88843,47.470009],[6.885249,47.470233],[6.884255,47.469823],[6.883359,47.469796],[6.88322,47.467897],[6.880073,47.46831],[6.879566,47.469442],[6.879059,47.470068],[6.879071,47.472533],[6.878508,47.474589],[6.879897,47.474896],[6.880191,47.47602],[6.878625,47.476328],[6.878023,47.477287],[6.878196,47.477433],[6.881291,47.477131],[6.882082,47.477223],[6.882644,47.478441],[6.883776,47.479574],[6.8851,47.4817],[6.885202,47.483586],[6.884292,47.485114],[6.883845,47.486807],[6.882336,47.490579],[6.882359,47.493533],[6.887526,47.493504],[6.891415,47.49403],[6.895557,47.495106],[6.897899,47.496531],[6.897422,47.498755],[6.900955,47.504931],[6.901324,47.505176],[6.902937,47.507921],[6.90332,47.508846],[6.903793,47.509092],[6.902453,47.509467],[6.90102,47.51065],[6.903859,47.51222],[6.90736,47.51322],[6.910194,47.513784],[6.911815,47.51371],[6.912287,47.513564],[6.912203,47.513832],[6.913119,47.51521],[6.914162,47.517824],[6.914213,47.518766],[6.914491,47.518947],[6.914756,47.519845],[6.918615,47.518308],[6.919312,47.518371],[6.919857,47.51789],[6.920123,47.518044],[6.920564,47.517672],[6.921112,47.517986],[6.924001,47.518662],[6.924842,47.519221]]]}},{"type":"Feature","properties":{"uai_primary":"0900277M","uai_all":"0900277M","is_merged":false},"geometry":{"type":"Polygon","coordinates":[[[6.956475,47.580781],[6.957069,47.580516],[6.956903,47.58006],[6.958186,47.579846],[6.958749,47.579388],[6.959285,47.579442],[6.96003,47.579758],[6.96019,47.581005],[6.960671,47.581141],[6.961021,47.581697],[6.961642,47.582024],[6.961778,47.582384],[6.962548,47.582125],[6.961827,47.581622],[6.961418,47.578779],[6.961715,47.577981],[6.961245,47.577064],[6.958676,47.576244],[6.957109,47.575945],[6.95668,47.576012],[6.955734,47.575212],[6.954866,47.575029],[6.9543,47.574457],[6.955479,47.572988],[6.955862,47.572803],[6.955087,47.572436],[6.958508,47.569152],[6.9596,47.568857],[6.960259,47.567049],[6.961819,47.566316],[6.962674,47.565633],[6.963259,47.565537],[6.963973,47.565052],[6.965762,47.564466],[6.966836,47.565684],[6.970056,47.56481],[6.973321,47.564614],[6.97451,47.563616],[6.975867,47.562912],[6.980802,47.563746],[6.981001,47.563567],[6.980039,47.562656],[6.98146,47.561574],[6.983124,47.560872],[6.985285,47.559495],[6.987408,47.560304],[6.991859,47.561673],[6.993626,47.562064],[6.997243,47.562329],[6.997192,47.560676],[6.997527,47.56002],[6.997656,47.558556],[6.996862,47.557969],[6.993865,47.556785],[6.992908,47.555514],[6.992943,47.551883],[6.992447,47.549647],[6.993294,47.549385],[6.994722,47.548263],[6.997151,47.547114],[7.000085,47.546685],[7.002588,47.54589],[7.004921,47.545639],[7.010088,47.546408],[7.010132,47.546075],[7.011145,47.545983],[7.013189,47.544416],[7.008664,47.543694],[7.007586,47.54246],[7.007031,47.541057],[7.005717,47.541563],[7.003067,47.540704],[7.000377,47.539277],[6.999639,47.538714],[6.997568,47.538483],[6.997441,47.53829],[6.99771,47.538044],[6.99677,47.537362],[6.996563,47.536918],[6.996427,47.536826],[6.996148,47.537018],[6.994813,47.535958],[6.99412,47.535633],[6.993112,47.535356],[6.991036,47.535287],[6.990231,47.53492],[6.989922,47.535041],[6.98904,47.534114],[6.987983,47.53357],[6.988986,47.533261],[6.988102,47.532548],[6.988443,47.532336],[6.987468,47.531538],[6.987665,47.53114],[6.987181,47.530906],[6.987536,47.530624],[6.987691,47.530152],[6.986776,47.529276],[6.986875,47.529199],[6.985753,47.527569],[6.985998,47.527478],[6.985103,47.526515],[6.985645,47.526177],[6.98405,47.524304],[6.982138,47.523245],[6.981499,47.523865],[6.977346,47.521921],[6.977074,47.522336],[6.97449,47.521331],[6.974221,47.522079],[6.973661,47.521885],[6.972755,47.522029],[6.972216,47.521168],[6.970589,47.520465],[6.970523,47.520775],[6.969413,47.520403],[6.969718,47.519954],[6.968404,47.519582],[6.966599,47.518516],[6.965662,47.518464],[6.965335,47.517756],[6.960889,47.518432],[6.960364,47.517894],[6.958816,47.516955],[6.959237,47.516468],[6.958029,47.51557],[6.951863,47.516536],[6.949443,47.516095],[6.949651,47.514687],[6.948899,47.514582],[6.947309,47.514646],[6.946487,47.514362],[6.945001,47.51334],[6.942764,47.51361],[6.938214,47.517124],[6.937692,47.517235],[6.937574,47.517419],[6.936486,47.517913],[6.935629,47.517992],[6.934611,47.517763],[6.932733,47.519099],[6.93214,47.519167],[6.927979,47.518468],[6.927,47.518751],[6.925259,47.519574],[6.920806,47.520144],[6.919004,47.52122],[6.918483,47.522698],[6.918495,47.523331],[6.916344,47.523554],[6.916812,47.524696],[6.911505,47.525556],[6.907439,47.525928],[6.907188,47.527113],[6.910328,47.526989],[6.912842,47.52758],[6.913571,47.528439],[6.914511,47.528985],[6.915823,47.529483],[6.916439,47.530971],[6.91617,47.532446],[6.91415,47.535666],[6.912745,47.536608],[6.911332,47.538909],[6.910307,47.539794],[6.908084,47.540769],[6.907752,47.541162],[6.907282,47.541976],[6.906873,47.543625],[6.907035,47.544772],[6.905794,47.547278],[6.905707,47.54796],[6.902806,47.548829],[6.901979,47.549982],[6.896009,47.549746],[6.890186,47.550089],[6.887851,47.552089],[6.887071,47.553274],[6.885556,47.554671],[6.883369,47.555507],[6.883367,47.558354],[6.882972,47.559532],[6.881518,47.56064],[6.880354,47.562949],[6.878535,47.562997],[6.877699,47.562871],[6.877452,47.563596],[6.87536,47.565842],[6.873302,47.567347],[6.875442,47.568236],[6.876504,47.569948],[6.877568,47.572311],[6.879937,47.57387],[6.880325,47.573843],[6.881554,47.574663],[6.881931,47.574775],[6.882212,47.574648],[6.883518,47.578773],[6.884239,47.579671],[6.884546,47.580874],[6.888192,47.580258],[6.892093,47.580864],[6.894161,47.58149],[6.895841,47.581375],[6.898935,47.581446],[6.91146,47.582324],[6.911543,47.582195],[6.912656,47.581996],[6.913317,47.58151],[6.914741,47.581938],[6.91648,47.581586],[6.917833,47.580953],[6.91804,47.581044],[6.919609,47.579403],[6.921948,47.578127],[6.926006,47.580098],[6.931674,47.583129],[6.93351,47.585879],[6.935067,47.586171],[6.938156,47.587225],[6.939917,47.58815],[6.942167,47.590024],[6.944915,47.589535],[6.946979,47.590238],[6.947323,47.591753],[6.948401,47.593021],[6.951725,47.593399],[6.951739,47.594109],[6.952412,47.594069],[6.951919,47.593874],[6.951859,47.592555],[6.951745,47.592387],[6.951471,47.59243],[6.951533,47.592034],[6.951121,47.591289],[6.951492,47.590363],[6.951904,47.590059],[6.952991,47.589935],[6.953899,47.589288],[6.953876,47.589031],[6.954815,47.588686],[6.954976,47.588351],[6.955753,47.588205],[6.95672,47.587708],[6.956771,47.587275],[6.957319,47.58721],[6.957092,47.586321],[6.95829,47.586309],[6.958698,47.586167],[6.958325,47.584879],[6.958413,47.584005],[6.957542,47.582581],[6.957683,47.581682],[6.956918,47.580976],[6.956475,47.580781]]]}},{"type":"Feature","properties":{"uai_primary":"0900295G","uai_all":"0900295G","is_merged":false},"geometry":{"type":"Polygon","coordinates":[[[6.885527,47.680347],[6.885886,47.681659],[6.885687,47.682862],[6.886357,47.684739],[6.890931,47.686568],[6.890169,47.689249],[6.890292,47.689939],[6.890866,47.691044],[6.892264,47.692723],[6.893049,47.692462],[6.898397,47.693179],[6.901854,47.694472],[6.90266,47.693865],[6.904738,47.690729],[6.908047,47.691011],[6.911055,47.690458],[6.913932,47.690631],[6.915768,47.68989],[6.917467,47.689497],[6.918613,47.68818],[6.920553,47.689205],[6.923183,47.690108],[6.924961,47.690357],[6.926703,47.690248],[6.930667,47.691878],[6.933549,47.692783],[6.938473,47.693977],[6.940999,47.693627],[6.941401,47.693808],[6.941963,47.693374],[6.94256,47.693618],[6.94306,47.693189],[6.943575,47.693085],[6.950163,47.692119],[6.954688,47.692821],[6.954877,47.693078],[6.9568,47.690943],[6.95741,47.689651],[6.957228,47.689526],[6.957798,47.688892],[6.958236,47.686452],[6.959423,47.685451],[6.960249,47.682952],[6.960022,47.682321],[6.96055,47.68204],[6.960851,47.681621],[6.959963,47.681192],[6.959885,47.679657],[6.961645,47.679655],[6.962594,47.675631],[6.962249,47.673955],[6.962368,47.673442],[6.96194,47.672054],[6.963155,47.670526],[6.973705,47.673691],[6.972552,47.672275],[6.971853,47.668578],[6.972656,47.664289],[6.972313,47.662178],[6.971524,47.660419],[6.971248,47.659118],[6.971517,47.658492],[6.971026,47.657617],[6.971315,47.65579],[6.97101,47.654796],[6.970145,47.654787],[6.969918,47.65156],[6.970727,47.650014],[6.970755,47.648813],[6.970969,47.647918],[6.971157,47.647865],[6.971093,47.647592],[6.971795,47.646999],[6.972505,47.644606],[6.973234,47.643648],[6.973471,47.642715],[6.973959,47.642436],[6.972798,47.640371],[6.972204,47.638527],[6.971012,47.63675],[6.967595,47.63688],[6.966385,47.637053],[6.965885,47.636685],[6.965872,47.636186],[6.964773,47.635925],[6.964349,47.635333],[6.964292,47.634879],[6.963968,47.634754],[6.963993,47.634423],[6.96305,47.634326],[6.962818,47.63379],[6.962453,47.633654],[6.962677,47.63344],[6.962785,47.632788],[6.96203,47.631522],[6.962794,47.630294],[6.963091,47.630202],[6.96218,47.629349],[6.962226,47.628498],[6.960173,47.628214],[6.957062,47.628417],[6.952605,47.628298],[6.952136,47.628149],[6.951824,47.627987],[6.952318,47.626753],[6.952224,47.625535],[6.951028,47.625252],[6.950684,47.625024],[6.950573,47.624624],[6.950059,47.624554],[6.950455,47.624243],[6.950145,47.623185],[6.949762,47.623466],[6.949182,47.62299],[6.947928,47.622794],[6.947201,47.621534],[6.947918,47.62023],[6.948026,47.617967],[6.948699,47.615936],[6.94961,47.615044],[6.949939,47.612758],[6.949804,47.611552],[6.94895,47.61041],[6.948981,47.609193],[6.947718,47.608213],[6.945635,47.608701],[6.944139,47.60764],[6.942909,47.60573],[6.942797,47.60495],[6.943746,47.604846],[6.945358,47.603991],[6.94617,47.603853],[6.944323,47.600676],[6.943051,47.597523],[6.944503,47.597153],[6.943947,47.596816],[6.944185,47.595985],[6.939177,47.594072],[6.935773,47.594408],[6.920478,47.596629],[6.923266,47.596847],[6.92397,47.597442],[6.924391,47.598192],[6.921258,47.599383],[6.91209,47.59961],[6.908971,47.600756],[6.906774,47.603158],[6.905428,47.603462],[6.905458,47.603563],[6.902585,47.604014],[6.902645,47.604164],[6.89968,47.604607],[6.898162,47.604249],[6.897901,47.603873],[6.897072,47.603996],[6.89662,47.604967],[6.896498,47.605881],[6.895818,47.605772],[6.896129,47.606814],[6.894036,47.606856],[6.892049,47.606621],[6.892354,47.607146],[6.892057,47.607144],[6.89181,47.607473],[6.892072,47.608906],[6.891061,47.608944],[6.890958,47.609365],[6.891303,47.60988],[6.891399,47.610644],[6.891245,47.610873],[6.882065,47.610721],[6.880986,47.610554],[6.880986,47.610755],[6.884231,47.611307],[6.884966,47.613847],[6.885772,47.615627],[6.889231,47.620633],[6.8899,47.621471],[6.890176,47.621574],[6.89009,47.622179],[6.8885,47.624811],[6.884097,47.628531],[6.879443,47.6301],[6.87287,47.62718],[6.862788,47.624679],[6.863371,47.626385],[6.861575,47.628688],[6.860445,47.628714],[6.859931,47.629121],[6.859924,47.629379],[6.860335,47.629654],[6.861761,47.629945],[6.862163,47.630819],[6.862081,47.631272],[6.862734,47.631673],[6.863192,47.631538],[6.86292,47.631019],[6.863393,47.630817],[6.863542,47.630951],[6.864076,47.630679],[6.864159,47.631059],[6.864992,47.630999],[6.865079,47.631814],[6.866162,47.634443],[6.868894,47.633717],[6.869707,47.634194],[6.869734,47.634354],[6.869265,47.634719],[6.866809,47.63549],[6.866399,47.635496],[6.866764,47.636629],[6.867799,47.637728],[6.867816,47.6382],[6.869258,47.63876],[6.869727,47.639093],[6.869611,47.639548],[6.871378,47.64035],[6.871458,47.640609],[6.872891,47.641331],[6.87445,47.641469],[6.877214,47.643389],[6.879196,47.643985],[6.880764,47.644721],[6.882843,47.646925],[6.884612,47.649299],[6.886243,47.652104],[6.8898,47.652815],[6.893482,47.654369],[6.89408,47.654874],[6.896548,47.658063],[6.895873,47.658518],[6.895136,47.658193],[6.89456,47.658561],[6.893308,47.659872],[6.892587,47.659654],[6.89064,47.661798],[6.890884,47.661927],[6.889318,47.663558],[6.889822,47.663827],[6.889159,47.664766],[6.888495,47.664455],[6.888609,47.664867],[6.888349,47.665277],[6.888176,47.665228],[6.887596,47.666438],[6.888859,47.666577],[6.888771,47.66679],[6.889189,47.666843],[6.88909,47.667211],[6.886574,47.666837],[6.885327,47.666452],[6.884859,47.666544],[6.88451,47.666997],[6.881895,47.665858],[6.881761,47.666406],[6.882718,47.668761],[6.882553,47.670864],[6.882839,47.671267],[6.883781,47.671799],[6.884015,47.672098],[6.88449,47.673306],[6.885476,47.674316],[6.885628,47.674868],[6.886348,47.675904],[6.885651,47.678166],[6.885113,47.678166],[6.884292,47.679085],[6.88423,47.679673],[6.885139,47.67993],[6.885527,47.680347]],[[6.876267,47.640284],[6.876093,47.640397],[6.875218,47.640018],[6.874524,47.640248],[6.873829,47.63923],[6.875141,47.639059],[6.875302,47.639142],[6.875297,47.639799],[6.875868,47.639909],[6.87643,47.639751],[6.876755,47.639366],[6.87703,47.63943],[6.877394,47.640103],[6.876973,47.640548],[6.876629,47.640199],[6.876267,47.640284]],[[6.877528,47.640133],[6.878523,47.639735],[6.878331,47.640682],[6.877528,47.640133]]]}},{"type":"Feature","properties":{"uai_primary":"0900351T","uai_all":"0900351T","is_merged":false},"geometry":{"type":"Polygon","coordinates":[[[6.783877,47.654802],[6.787431,47.65537],[6.787677,47.655004],[6.788674,47.654477],[6.790614,47.654914],[6.791728,47.655641],[6.794518,47.653153],[6.796213,47.652152],[6.798397,47.650495],[6.79899,47.650558],[6.800305,47.651671],[6.801926,47.652221],[6.804148,47.653326],[6.80696,47.653742],[6.810204,47.652925],[6.810889,47.652337],[6.81395,47.648368],[6.814873,47.647776],[6.815375,47.647205],[6.816831,47.646587],[6.818526,47.646184],[6.824634,47.647215],[6.828162,47.645364],[6.827924,47.641901],[6.830231,47.640622],[6.831915,47.639936],[6.833626,47.638283],[6.834846,47.636029],[6.835421,47.635978],[6.835705,47.636132],[6.83778,47.636414],[6.83793,47.636285],[6.838146,47.635562],[6.837976,47.634657],[6.838425,47.634293],[6.838627,47.633384],[6.839117,47.633216],[6.839788,47.632426],[6.839917,47.631982],[6.839727,47.631713],[6.84047,47.631513],[6.840943,47.63078],[6.841855,47.630415],[6.842204,47.629895],[6.842094,47.62949],[6.842494,47.628881],[6.843529,47.628352],[6.842963,47.627525],[6.845358,47.627025],[6.845467,47.627763],[6.846903,47.627175],[6.846605,47.626753],[6.846247,47.626612],[6.848057,47.623543],[6.847121,47.623438],[6.847332,47.619421],[6.846714,47.616352],[6.843086,47.6129],[6.839884,47.61117],[6.839833,47.609058],[6.839214,47.608376],[6.839304,47.607353],[6.838989,47.60695],[6.838752,47.607405],[6.837775,47.607656],[6.836893,47.607658],[6.835117,47.608403],[6.834099,47.608599],[6.832877,47.609075],[6.833416,47.609955],[6.833349,47.610208],[6.83285,47.610487],[6.830503,47.61051],[6.830447,47.610309],[6.82914,47.609873],[6.826754,47.609947],[6.824392,47.610371],[6.821798,47.612003],[6.820359,47.613094],[6.818757,47.614643],[6.81546,47.616617],[6.812697,47.618615],[6.810088,47.620067],[6.807121,47.622711],[6.806077,47.622638],[6.804973,47.623417],[6.804819,47.623773],[6.802799,47.624188],[6.800946,47.624159],[6.799178,47.623614],[6.797862,47.625341],[6.795471,47.62532],[6.794095,47.62546],[6.792407,47.624962],[6.792524,47.625923],[6.792359,47.626334],[6.79198,47.626574],[6.791194,47.626739],[6.790928,47.627386],[6.790099,47.627186],[6.789306,47.627262],[6.789436,47.625636],[6.783791,47.625852],[6.780519,47.62528],[6.775827,47.625598],[6.775616,47.624984],[6.773779,47.625009],[6.774626,47.626195],[6.773619,47.626599],[6.772209,47.626175],[6.77078,47.625019],[6.769521,47.624391],[6.766988,47.624107],[6.765724,47.624216],[6.765342,47.624012],[6.763609,47.62401],[6.76305,47.625947],[6.762998,47.626822],[6.7632,47.627448],[6.762189,47.629693],[6.760704,47.629351],[6.759884,47.629351],[6.759829,47.629137],[6.756989,47.628653],[6.756926,47.628283],[6.755842,47.627022],[6.754674,47.626408],[6.754432,47.626503],[6.753735,47.627134],[6.7534,47.627864],[6.752261,47.629026],[6.752967,47.629155],[6.754623,47.630416],[6.756696,47.63127],[6.759981,47.631975],[6.760983,47.632306],[6.761935,47.632989],[6.763124,47.633153],[6.762536,47.636608],[6.76197,47.63745],[6.761932,47.637857],[6.761512,47.637816],[6.758952,47.638616],[6.756464,47.639992],[6.755243,47.64134],[6.754646,47.642672],[6.75535,47.644369],[6.754709,47.645192],[6.754661,47.645701],[6.756729,47.647325],[6.757087,47.650022],[6.759144,47.650333],[6.765149,47.650115],[6.767199,47.649666],[6.771008,47.647712],[6.772963,47.647594],[6.774515,47.648007],[6.777201,47.649031],[6.778892,47.649327],[6.781971,47.649478],[6.784144,47.650747],[6.787487,47.651655],[6.786751,47.653215],[6.783877,47.654802]]]}}]}